{"type": "FeatureCollection", "metadata": {"crs": "EPSG:4326", "province": "on", "layer": "federal_closure", "layer_role": "closure", "feature_count": 24, "coverage": "National Wildlife Areas and Migratory Bird Sanctuaries in Ontario. Closed to hunting except waterfowl in designated areas of Big Creek and Long Point.", "boundary_accuracy": "mapped", "default_name": "Federal protected area", "tenure": "Federal protected area \u2014 closed to hunting", "basis_notes": {"nwa_closed": "National Wildlife Area. Hunting is prohibited, and so is possessing equipment that could be used for hunting, unless the regulation's own schedule authorises it for this area. It does not.", "nwa_waterfowl": "National Wildlife Area where the regulation authorises sport hunting of waterfowl only, in areas the Minister designates. Those designated areas are not published as a boundary, so this outline cannot tell you whether your spot is one of them. Nothing else may be hunted, and no toxic shot may be used.", "nwa_no_entry": "National Wildlife Area you may not even enter without a federal permit, let alone hunt.", "nwa_unverified": "Mapped by ECCC as a National Wildlife Area, but its name is not in the current regulation schedule, so we could not confirm which rules apply. Treat it as closed until Environment and Climate Change Canada says otherwise.", "mbs_closed": "Migratory Bird Sanctuary. Hunting migratory birds is prohibited, and separately you may not have any firearm or hunting appliance in your possession here at all. Together that closes it to hunting anything by any means, including walking through with a slung rifle after deer.", "mbs_unverified": "Mapped by ECCC as a Migratory Bird Sanctuary, but its name is not in the current regulation schedule, so we could not confirm which rules apply. Treat it as closed until Environment and Climate Change Canada says otherwise."}, "license": "Open Government Licence \u2013 Canada", "license_url": "https://open.canada.ca/en/open-government-licence-canada", "source": "Canadian Protected and Conserved Areas Database (CPCAD), ECCC", "source_url": "https://www.canada.ca/en/environment-climate-change/services/national-wildlife-areas/protected-conserved-areas-database.html", "hunting_source": "Wildlife Area Regulations, C.R.C., c. 1609, under the Canada Wildlife Act; Migratory Bird Sanctuary Regulations, C.R.C., c. 1036, under the Migratory Birds Convention Act, 1994", "hunting_source_url": "https://laws-lois.justice.gc.ca/eng/regulations/C.R.C.,_c._1609/", "hunting_currency_date": "2025-03-12", "extent_note": "Hunting is authorised only in areas the Minister designates inside this boundary. Those designations are not published as geometry, so this outline cannot tell you whether your spot is one of them.", "unverified_areas": [], "note": "The boundaries are ECCC's; the prohibitions are the regulations'. In a sanctuary the possession of any firearm or hunting appliance is an offence in its own right, so it is closed to hunting anything by any means, not only to waterfowling."}, "features": [{"type": "Feature", "properties": {"id": "on-fed-1", "name": "Becketts Creek Migratory Bird Sanctuary", "designation": "Migratory Bird Sanctuary", "hunting_allowed": false, "firearm_prohibited": true, "citation": "Migratory Bird Sanctuary Regulations, C.R.C., c. 1036, under the Migratory Birds Convention Act, 1994", "basis": "mbs_closed"}, "geometry": {"type": "MultiPolygon", "coordinates": [[[[-75.35258, 45.52022], [-75.35228, 45.52033], [-75.3504, 45.52101], [-75.3505, 45.52123], [-75.35083, 45.52123], [-75.35306, 45.52095], [-75.35258, 45.52022]]], [[[-75.34967, 45.52596], [-75.3486, 45.52702], [-75.34853, 45.52771], [-75.34812, 45.52783], [-75.34826, 45.52807], [-75.34946, 45.52759], [-75.35011, 45.5268], [-75.35053, 45.52685], [-75.35268, 45.52623], [-75.35552, 45.52612], [-75.35725, 45.52622], [-75.35976, 45.52592], [-75.3618, 45.52538], [-75.36261, 45.52538], [-75.36269, 45.52523], [-75.36237, 45.52471], [-75.35657, 45.52404], [-75.35482, 45.521], [-75.34741, 45.52208], [-75.34967, 45.52596]]], [[[-75.34493, 45.52231], [-75.34724, 45.52178], [-75.34599, 45.51964], [-75.34821, 45.51896], [-75.34853, 45.51949], [-75.34928, 45.51928], [-75.35017, 45.52083], [-75.35243, 45.52], [-75.34412, 45.50599], [-75.34117, 45.50685], [-75.34151, 45.50742], [-75.34026, 45.50842], [-75.34011, 45.50873], [-75.33977, 45.50888], [-75.33804, 45.50596], [-75.3313, 45.50783], [-75.33602, 45.51608], [-75.34068, 45.51498], [-75.34493, 45.52231]]]]}}, {"type": "Feature", "properties": {"id": "on-fed-2", "name": "Big Creek National Wildlife Area - Big Creek Unit", "designation": "National Wildlife Area", "hunting_allowed": null, "hunting_extent": "part", "reg_text": "Sport hunting of waterfowl \u2014 including with dogs off leash \u2014 in designated areas from half an hour before sunrise to half an hour after sunset, if the hunting is carried out", "citation": "Wildlife Area Regulations, C.R.C., c. 1609, under the Canada Wildlife Act", "basis": "nwa_waterfowl"}, "geometry": {"type": "Polygon", "coordinates": [[[-80.44124, 42.57891], [-80.44079, 42.57952], [-80.43994, 42.58212], [-80.44008, 42.58278], [-80.44116, 42.58463], [-80.44235, 42.58626], [-80.44515, 42.58944], [-80.44564, 42.59023], [-80.44895, 42.59402], [-80.45242, 42.59923], [-80.45873, 42.60717], [-80.46143, 42.60521], [-80.45729, 42.59989], [-80.45758, 42.59952], [-80.46041, 42.59909], [-80.46071, 42.59845], [-80.46058, 42.59748], [-80.46075, 42.59711], [-80.46338, 42.5951], [-80.46525, 42.5942], [-80.4725, 42.59341], [-80.47343, 42.59303], [-80.47505, 42.58797], [-80.47635, 42.588], [-80.47621, 42.58701], [-80.47644, 42.58538], [-80.47698, 42.58357], [-80.47749, 42.58357], [-80.48112, 42.5859], [-80.47293, 42.57514], [-80.4654, 42.57546], [-80.45435, 42.57646], [-80.44948, 42.57716], [-80.44547, 42.57752], [-80.44124, 42.57891]]]}}, {"type": "Feature", "properties": {"id": "on-fed-3", "name": "Big Creek National Wildlife Area - Hahn Unit", "designation": "National Wildlife Area", "hunting_allowed": null, "hunting_extent": "part", "reg_text": "Sport hunting of waterfowl \u2014 including with dogs off leash \u2014 in designated areas from half an hour before sunrise to half an hour after sunset, if the hunting is carried out", "citation": "Wildlife Area Regulations, C.R.C., c. 1609, under the Canada Wildlife Act", "basis": "nwa_waterfowl"}, "geometry": {"type": "Polygon", "coordinates": [[[-80.52685, 42.5732], [-80.52335, 42.57345], [-80.5175, 42.57325], [-80.50674, 42.57403], [-80.5144, 42.58427], [-80.51785, 42.58337], [-80.51933, 42.58252], [-80.52114, 42.58227], [-80.53005, 42.5785], [-80.5328, 42.5765], [-80.53039, 42.57336], [-80.52685, 42.5732]]]}}, {"type": "Feature", "properties": {"id": "on-fed-4", "name": "Chantry Island Migratory Bird Sanctuary", "designation": "Migratory Bird Sanctuary", "hunting_allowed": false, "firearm_prohibited": true, "citation": "Migratory Bird Sanctuary Regulations, C.R.C., c. 1036, under the Migratory Birds Convention Act, 1994", "basis": "mbs_closed"}, "geometry": {"type": "Polygon", "coordinates": [[[-81.40098, 44.49298], [-81.40133, 44.49315], [-81.40275, 44.49268], [-81.40355, 44.49287], [-81.40384, 44.4927], [-81.40349, 44.4922], [-81.40405, 44.4924], [-81.40427, 44.49221], [-81.40471, 44.49243], [-81.40477, 44.49226], [-81.40459, 44.49217], [-81.40455, 44.49189], [-81.40491, 44.4922], [-81.40592, 44.49187], [-81.40559, 44.49155], [-81.40578, 44.4914], [-81.40549, 44.49126], [-81.40485, 44.49145], [-81.40416, 44.49143], [-81.40384, 44.49123], [-81.40407, 44.49106], [-81.40375, 44.49096], [-81.40364, 44.49064], [-81.40419, 44.49054], [-81.40452, 44.49075], [-81.40506, 44.4907], [-81.40457, 44.49019], [-81.40475, 44.49004], [-81.40555, 44.49015], [-81.40484, 44.4898], [-81.4049, 44.48944], [-81.40475, 44.48945], [-81.40451, 44.48896], [-81.40401, 44.4891], [-81.4036, 44.48893], [-81.40423, 44.489], [-81.40449, 44.48883], [-81.40467, 44.489], [-81.40493, 44.48888], [-81.4056, 44.48921], [-81.40553, 44.48935], [-81.40585, 44.48981], [-81.40641, 44.48938], [-81.40618, 44.48877], [-81.40667, 44.48833], [-81.40724, 44.48827], [-81.40684, 44.48776], [-81.40701, 44.48761], [-81.40638, 44.48722], [-81.40602, 44.48749], [-81.40653, 44.4875], [-81.40591, 44.48781], [-81.40584, 44.48765], [-81.40516, 44.48764], [-81.40509, 44.4874], [-81.40537, 44.48687], [-81.40536, 44.4864], [-81.40513, 44.48691], [-81.4035, 44.48751], [-81.40312, 44.48809], [-81.40234, 44.48829], [-81.40113, 44.48917], [-81.40158, 44.49004], [-81.40135, 44.49089], [-81.40103, 44.49117], [-81.40099, 44.49175], [-81.40116, 44.49208], [-81.40098, 44.49298]]]}}, {"type": "Feature", "properties": {"id": "on-fed-5", "name": "Eleanor Island National Wildlife Area", "designation": "National Wildlife Area", "hunting_allowed": false, "entry_prohibited": true, "reg_paragraph": "s. 3.3(1)(b)", "citation": "Wildlife Area Regulations, C.R.C., c. 1609, under the Canada Wildlife Act", "basis": "nwa_no_entry"}, "geometry": {"type": "Polygon", "coordinates": [[[-79.39021, 44.98373], [-79.39095, 44.98384], [-79.39117, 44.98361], [-79.39123, 44.98272], [-79.39065, 44.98308], [-79.39013, 44.98307], [-79.38997, 44.98331], [-79.39021, 44.98373]]]}}, {"type": "Feature", "properties": {"id": "on-fed-6", "name": "Hannah Bay Migratory Bird Sanctuary", "designation": "Migratory Bird Sanctuary", "hunting_allowed": false, "firearm_prohibited": true, "citation": "Migratory Bird Sanctuary Regulations, C.R.C., c. 1036, under the Migratory Birds Convention Act, 1994", "basis": "mbs_closed"}, "geometry": {"type": "Polygon", "coordinates": [[[-79.68727, 51.27991], [-79.67908, 51.27991], [-79.67639, 51.27869], [-79.67511, 51.27789], [-79.67102, 51.27808], [-79.66748, 51.27893], [-79.66541, 51.27893], [-79.66278, 51.27832], [-79.66162, 51.27832], [-79.6604, 51.27869], [-79.65991, 51.27869], [-79.65979, 51.27893], [-79.65759, 51.27948], [-79.6543, 51.2785], [-79.65271, 51.2785], [-79.65082, 51.27808], [-79.64948, 51.27692], [-79.64868, 51.27649], [-79.64789, 51.27631], [-79.646, 51.27612], [-79.6449, 51.27631], [-79.64301, 51.27612], [-79.64038, 51.2749], [-79.63928, 51.2749], [-79.6377, 51.27533], [-79.63568, 51.27533], [-79.63409, 51.27472], [-79.633, 51.27448], [-79.63098, 51.27448], [-79.62781, 51.2735], [-79.62738, 51.27368], [-79.62488, 51.2735], [-79.62238, 51.27228], [-79.62109, 51.27209], [-79.61981, 51.27148], [-79.6189, 51.27148], [-79.6167, 51.27191], [-79.61371, 51.27173], [-79.60388, 51.27252], [-79.6015, 51.27228], [-79.59979, 51.27228], [-79.59662, 51.27173], [-79.59418, 51.27032], [-79.5918, 51.27032], [-79.59088, 51.2699], [-79.5896, 51.26892], [-79.58478, 51.26971], [-79.58118, 51.26971], [-79.57971, 51.26947], [-79.57629, 51.26947], [-79.573, 51.26892], [-79.57111, 51.26892], [-79.5675, 51.26947], [-79.56299, 51.26831], [-79.56189, 51.26788], [-79.56049, 51.2677], [-79.55951, 51.26727], [-79.55688, 51.26727], [-79.55591, 51.26709], [-79.55371, 51.2663], [-79.552, 51.26532], [-79.55011, 51.26508], [-79.54871, 51.26428], [-79.54687, 51.26453], [-79.5448, 51.26331], [-79.54242, 51.26251], [-79.53949, 51.26233], [-79.53851, 51.26208], [-79.5365, 51.26208], [-79.53558, 51.26233], [-79.5351, 51.26233], [-79.53491, 51.26208], [-79.53009, 51.26208], [-79.5296, 51.26233], [-79.52789, 51.2627], [-79.52771, 51.26288], [-79.52753, 51.26367], [-79.52692, 51.26392], [-79.52551, 51.26392], [-79.52301, 51.26349], [-79.52209, 51.26349], [-79.52142, 51.26312], [-79.51978, 51.26331], [-79.51801, 51.26251], [-79.51788, 51.39929], [-79.68408, 51.39929], [-79.685, 51.39832], [-79.6861, 51.39789], [-79.6861, 51.39728], [-79.68512, 51.39709], [-79.6825, 51.39709], [-79.6814, 51.39691], [-79.6781, 51.39551], [-79.67603, 51.39587], [-79.67432, 51.39587], [-79.67371, 51.39569], [-79.6734, 51.39508], [-79.67438, 51.39447], [-79.6759, 51.39429], [-79.67908, 51.39313], [-79.6806, 51.39111], [-79.68268, 51.39032], [-79.68469, 51.38788], [-79.68451, 51.38611], [-79.68488, 51.38531], [-79.68762, 51.38129], [-79.68829, 51.37909], [-79.68829, 51.3775], [-79.68768, 51.37451], [-79.68658, 51.37128], [-79.68378, 51.36688], [-79.6817, 51.36292], [-79.68121, 51.3623], [-79.67908, 51.36108], [-79.6778, 51.36011], [-79.67511, 51.3559], [-79.67432, 51.35492], [-79.67371, 51.35449], [-79.67242, 51.35229], [-79.67151, 51.3493], [-79.67181, 51.34631], [-79.67328, 51.34387], [-79.67468, 51.34351], [-79.67529, 51.34351], [-79.67719, 51.34528], [-79.6792, 51.34631], [-79.6806, 51.34668], [-79.68372, 51.34888], [-79.68579, 51.35132], [-79.6911, 51.35553], [-79.69672, 51.3587], [-79.69708, 51.3595], [-79.69922, 51.3609], [-79.70038, 51.36108], [-79.7016, 51.3609], [-79.70331, 51.35968], [-79.7041, 51.3587], [-79.70471, 51.35632], [-79.70679, 51.35492], [-79.70758, 51.35413], [-79.7077, 51.35248], [-79.70831, 51.35028], [-79.70801, 51.34967], [-79.70789, 51.34833], [-79.70813, 51.3479], [-79.71228, 51.34528], [-79.71393, 51.34631], [-79.7146, 51.34729], [-79.71521, 51.34833], [-79.7157, 51.35052], [-79.71631, 51.35132], [-79.71802, 51.35193], [-79.7196, 51.35168], [-79.7226, 51.35309], [-79.72131, 51.35388], [-79.7193, 51.35449], [-79.7182, 51.35529], [-79.7179, 51.35632], [-79.7146, 51.35773], [-79.71411, 51.35828], [-79.71582, 51.36011], [-79.71613, 51.36072], [-79.71558, 51.36292], [-79.71521, 51.3631], [-79.71411, 51.36292], [-79.7135, 51.36249], [-79.71259, 51.36072], [-79.7121, 51.36029], [-79.70831, 51.36432], [-79.7088, 51.3667], [-79.71021, 51.36749], [-79.71179, 51.3681], [-79.71259, 51.36871], [-79.71259, 51.36908], [-79.71143, 51.37152], [-79.71161, 51.37231], [-79.71161, 51.37451], [-79.71143, 51.37512], [-79.70898, 51.37708], [-79.70831, 51.37793], [-79.70862, 51.37909], [-79.70782, 51.38068], [-79.71051, 51.3819], [-79.71161, 51.38208], [-79.71399, 51.38208], [-79.7179, 51.37872], [-79.71918, 51.37848], [-79.72009, 51.37848], [-79.72308, 51.37653], [-79.72382, 51.37512], [-79.72638, 51.37347], [-79.7301, 51.37207], [-79.73138, 51.37207], [-79.73352, 51.37152], [-79.7348, 51.37091], [-79.73511, 51.36853], [-79.73602, 51.36713], [-79.73602, 51.3667], [-79.7356, 51.36652], [-79.73431, 51.36652], [-79.7326, 51.36688], [-79.73169, 51.36688], [-79.73138, 51.36652], [-79.7326, 51.36432], [-79.72968, 51.36212], [-79.72931, 51.36151], [-79.7298, 51.36047], [-79.72748, 51.35889], [-79.72601, 51.35828], [-79.72589, 51.35748], [-79.72681, 51.35571], [-79.72809, 51.35529], [-79.73181, 51.35608], [-79.73309, 51.35669], [-79.7356, 51.35687], [-79.73639, 51.35651], [-79.73669, 51.35608], [-79.73651, 51.35553], [-79.73651, 51.35309], [-79.73792, 51.35272], [-79.73938, 51.35168], [-79.74048, 51.35168], [-79.74078, 51.35193], [-79.74152, 51.35193], [-79.74188, 51.35132], [-79.74158, 51.35089], [-79.74188, 51.34851], [-79.74109, 51.34692], [-79.7406, 51.3465], [-79.74048, 51.34589], [-79.74213, 51.34528], [-79.74188, 51.34229], [-79.74139, 51.34167], [-79.74048, 51.34131], [-79.73999, 51.3407], [-79.73853, 51.33807], [-79.74011, 51.33649], [-79.73999, 51.33508], [-79.74109, 51.33289], [-79.74188, 51.33252], [-79.74231, 51.33191], [-79.74261, 51.33087], [-79.74451, 51.32953], [-79.74188, 51.32648], [-79.74188, 51.32629], [-79.74152, 51.32629], [-79.73999, 51.32489], [-79.73749, 51.3219], [-79.73523, 51.31769], [-79.7337, 51.31427], [-79.7326, 51.31232], [-79.73138, 51.31091], [-79.72931, 51.30933], [-79.72821, 51.30872], [-79.72351, 51.30688], [-79.72272, 51.30627], [-79.72198, 51.3053], [-79.72162, 51.30371], [-79.72089, 51.30249], [-79.71667, 51.29828], [-79.70551, 51.29492], [-79.70398, 51.2937], [-79.70349, 51.29272], [-79.70111, 51.29169], [-79.6972, 51.29291], [-79.69641, 51.29291], [-79.69391, 51.29187], [-79.69391, 51.29132], [-79.6955, 51.28912], [-79.69391, 51.28729], [-79.69061, 51.28552], [-79.68701, 51.28308], [-79.68671, 51.28271], [-79.68671, 51.28131], [-79.68689, 51.28088], [-79.68689, 51.28027], [-79.68727, 51.27991]]]}}, {"type": "Feature", "properties": {"id": "on-fed-7", "name": "Hannah Bay Migratory Bird Sanctuary", "designation": "Migratory Bird Sanctuary", "hunting_allowed": false, "firearm_prohibited": true, "citation": "Migratory Bird Sanctuary Regulations, C.R.C., c. 1036, under the Migratory Birds Convention Act, 1994", "basis": "mbs_closed"}, "geometry": {"type": "Polygon", "coordinates": [[[-79.68727, 51.27991], [-79.68689, 51.28027], [-79.68689, 51.28088], [-79.68671, 51.28131], [-79.68671, 51.28271], [-79.68701, 51.28308], [-79.69061, 51.28552], [-79.69391, 51.28729], [-79.6955, 51.28912], [-79.69391, 51.29132], [-79.69391, 51.29187], [-79.69641, 51.29291], [-79.6972, 51.29291], [-79.70111, 51.29169], [-79.70349, 51.29272], [-79.70398, 51.2937], [-79.70551, 51.29492], [-79.71667, 51.29828], [-79.72089, 51.30249], [-79.72162, 51.30371], [-79.72198, 51.3053], [-79.72272, 51.30627], [-79.72351, 51.30688], [-79.72821, 51.30872], [-79.72931, 51.30933], [-79.73138, 51.31091], [-79.7326, 51.31232], [-79.7337, 51.31427], [-79.73523, 51.31769], [-79.73749, 51.3219], [-79.73999, 51.32489], [-79.74152, 51.32629], [-79.74188, 51.32629], [-79.74188, 51.32648], [-79.74451, 51.32953], [-79.74261, 51.33087], [-79.74231, 51.33191], [-79.74188, 51.33252], [-79.74109, 51.33289], [-79.73999, 51.33508], [-79.74011, 51.33649], [-79.73853, 51.33807], [-79.73999, 51.3407], [-79.74048, 51.34131], [-79.74139, 51.34167], [-79.74188, 51.34229], [-79.74213, 51.34528], [-79.74048, 51.34589], [-79.7406, 51.3465], [-79.74109, 51.34692], [-79.74188, 51.34851], [-79.74158, 51.35089], [-79.74188, 51.35132], [-79.74152, 51.35193], [-79.74078, 51.35193], [-79.74048, 51.35168], [-79.73938, 51.35168], [-79.73792, 51.35272], [-79.73651, 51.35309], [-79.73651, 51.35553], [-79.73669, 51.35608], [-79.73639, 51.35651], [-79.7356, 51.35687], [-79.73309, 51.35669], [-79.73181, 51.35608], [-79.72809, 51.35529], [-79.72681, 51.35571], [-79.72589, 51.35748], [-79.72601, 51.35828], [-79.72748, 51.35889], [-79.7298, 51.36047], [-79.72931, 51.36151], [-79.72968, 51.36212], [-79.7326, 51.36432], [-79.73138, 51.36652], [-79.73169, 51.36688], [-79.7326, 51.36688], [-79.73431, 51.36652], [-79.7356, 51.36652], [-79.73602, 51.3667], [-79.73602, 51.36713], [-79.73511, 51.36853], [-79.7348, 51.37091], [-79.73352, 51.37152], [-79.73138, 51.37207], [-79.7301, 51.37207], [-79.72638, 51.37347], [-79.72382, 51.37512], [-79.72308, 51.37653], [-79.72009, 51.37848], [-79.71918, 51.37848], [-79.7179, 51.37872], [-79.71399, 51.38208], [-79.71161, 51.38208], [-79.71051, 51.3819], [-79.70782, 51.38068], [-79.70862, 51.37909], [-79.70831, 51.37793], [-79.70898, 51.37708], [-79.71143, 51.37512], [-79.71161, 51.37451], [-79.71161, 51.37231], [-79.71143, 51.37152], [-79.71259, 51.36908], [-79.71259, 51.36871], [-79.71179, 51.3681], [-79.71021, 51.36749], [-79.7088, 51.3667], [-79.70831, 51.36432], [-79.7121, 51.36029], [-79.71259, 51.36072], [-79.7135, 51.36249], [-79.71411, 51.36292], [-79.71521, 51.3631], [-79.71558, 51.36292], [-79.71613, 51.36072], [-79.71582, 51.36011], [-79.71411, 51.35828], [-79.7146, 51.35773], [-79.7179, 51.35632], [-79.7182, 51.35529], [-79.7193, 51.35449], [-79.72131, 51.35388], [-79.7226, 51.35309], [-79.7196, 51.35168], [-79.71802, 51.35193], [-79.71631, 51.35132], [-79.7157, 51.35052], [-79.71521, 51.34833], [-79.7146, 51.34729], [-79.71393, 51.34631], [-79.71228, 51.34528], [-79.70813, 51.3479], [-79.70789, 51.34833], [-79.70801, 51.34967], [-79.70831, 51.35028], [-79.7077, 51.35248], [-79.70758, 51.35413], [-79.70679, 51.35492], [-79.70471, 51.35632], [-79.7041, 51.3587], [-79.70331, 51.35968], [-79.7016, 51.3609], [-79.70038, 51.36108], [-79.69922, 51.3609], [-79.69708, 51.3595], [-79.69672, 51.3587], [-79.6911, 51.35553], [-79.68579, 51.35132], [-79.68372, 51.34888], [-79.6806, 51.34668], [-79.6792, 51.34631], [-79.67719, 51.34528], [-79.67529, 51.34351], [-79.67468, 51.34351], [-79.67328, 51.34387], [-79.67181, 51.34631], [-79.67151, 51.3493], [-79.67242, 51.35229], [-79.67371, 51.35449], [-79.67432, 51.35492], [-79.67511, 51.3559], [-79.6778, 51.36011], [-79.67908, 51.36108], [-79.68121, 51.3623], [-79.6817, 51.36292], [-79.68378, 51.36688], [-79.68658, 51.37128], [-79.68768, 51.37451], [-79.68829, 51.3775], [-79.68829, 51.37909], [-79.68762, 51.38129], [-79.68488, 51.38531], [-79.68451, 51.38611], [-79.68469, 51.38788], [-79.68268, 51.39032], [-79.6806, 51.39111], [-79.67908, 51.39313], [-79.6759, 51.39429], [-79.67438, 51.39447], [-79.6734, 51.39508], [-79.67371, 51.39569], [-79.67432, 51.39587], [-79.67603, 51.39587], [-79.6781, 51.39551], [-79.6814, 51.39691], [-79.6825, 51.39709], [-79.68512, 51.39709], [-79.6861, 51.39728], [-79.6861, 51.39789], [-79.685, 51.39832], [-79.68422, 51.39914], [-79.77848, 51.39916], [-79.77848, 51.27984], [-79.68727, 51.27991]]]}}, {"type": "Feature", "properties": {"id": "on-fed-8", "name": "Long Point National Wildlife Area - Long Point", "designation": "National Wildlife Area", "hunting_allowed": null, "hunting_extent": "part", "reg_text": "Sport hunting of waterfowl, including with dogs off-leash, in designated areas from half an hour before sunrise to half an hour after sunset, if the hunting is carried out", "citation": "Wildlife Area Regulations, C.R.C., c. 1609, under the Canada Wildlife Act", "basis": "nwa_waterfowl"}, "geometry": {"type": "Polygon", "coordinates": [[[-80.11596, 42.5543], [-80.11723, 42.55467], [-80.11946, 42.55892], [-80.12153, 42.56084], [-80.12457, 42.56265], [-80.12631, 42.56393], [-80.12827, 42.56571], [-80.13033, 42.56686], [-80.13196, 42.56834], [-80.1323, 42.56852], [-80.1339, 42.5686], [-80.18091, 42.5619], [-80.1823, 42.56188], [-80.18258, 42.56166], [-80.18363, 42.56168], [-80.18809, 42.56075], [-80.1971, 42.56172], [-80.198, 42.56239], [-80.20119, 42.56218], [-80.20195, 42.56176], [-80.20225, 42.5621], [-80.20411, 42.56183], [-80.20639, 42.56174], [-80.20882, 42.56213], [-80.21021, 42.56256], [-80.21152, 42.56261], [-80.2151, 42.56236], [-80.21668, 42.56256], [-80.21836, 42.56315], [-80.22353, 42.56356], [-80.22475, 42.56347], [-80.228, 42.56386], [-80.23344, 42.56416], [-80.23432, 42.56437], [-80.23607, 42.56434], [-80.2397, 42.56519], [-80.24366, 42.56764], [-80.2448, 42.56799], [-80.2451, 42.56823], [-80.26415, 42.5654], [-80.27944, 42.5598], [-80.27797, 42.55967], [-80.27399, 42.55884], [-80.27251, 42.55894], [-80.26658, 42.55796], [-80.26376, 42.55734], [-80.25771, 42.55663], [-80.25669, 42.55664], [-80.2506, 42.55561], [-80.24826, 42.5554], [-80.23964, 42.55376], [-80.2387, 42.55379], [-80.23483, 42.5532], [-80.22939, 42.55215], [-80.223, 42.55116], [-80.22205, 42.55114], [-80.22136, 42.5513], [-80.22063, 42.55118], [-80.21372, 42.54973], [-80.20879, 42.54837], [-80.20316, 42.54721], [-80.20065, 42.54686], [-80.19962, 42.54686], [-80.19798, 42.54644], [-80.18588, 42.5445], [-80.18402, 42.54405], [-80.18209, 42.54409], [-80.17706, 42.54316], [-80.17098, 42.54178], [-80.16932, 42.54121], [-80.16846, 42.54075], [-80.16619, 42.54078], [-80.16274, 42.54014], [-80.16037, 42.5402], [-80.15758, 42.53997], [-80.14724, 42.53841], [-80.1435, 42.53838], [-80.13873, 42.53879], [-80.13467, 42.53876], [-80.13085, 42.53907], [-80.12581, 42.53998], [-80.12093, 42.54029], [-80.11491, 42.54038], [-80.11096, 42.541], [-80.10367, 42.54162], [-80.09943, 42.54167], [-80.09278, 42.54227], [-80.08713, 42.54257], [-80.07922, 42.5438], [-80.07446, 42.54434], [-80.07452, 42.54883], [-80.07833, 42.54895], [-80.08014, 42.5493], [-80.0805, 42.54956], [-80.08228, 42.54974], [-80.0858, 42.55073], [-80.08693, 42.55086], [-80.08792, 42.55116], [-80.08878, 42.55201], [-80.09066, 42.55284], [-80.09209, 42.55294], [-80.09248, 42.55391], [-80.09313, 42.5542], [-80.09465, 42.5542], [-80.09561, 42.55384], [-80.09727, 42.5538], [-80.09779, 42.55337], [-80.09986, 42.55269], [-80.10127, 42.55255], [-80.10464, 42.55274], [-80.10583, 42.54506], [-80.10978, 42.54465], [-80.10837, 42.55376], [-80.11012, 42.5539], [-80.11365, 42.55456], [-80.11596, 42.5543]]]}}, {"type": "Feature", "properties": {"id": "on-fed-9", "name": "Long Point National Wildlife Area - Thoroughfare Unit", "designation": "National Wildlife Area", "hunting_allowed": null, "hunting_extent": "part", "reg_text": "Sport hunting of waterfowl, including with dogs off-leash, in designated areas from half an hour before sunrise to half an hour after sunset, if the hunting is carried out", "citation": "Wildlife Area Regulations, C.R.C., c. 1609, under the Canada Wildlife Act", "basis": "nwa_waterfowl"}, "geometry": {"type": "Polygon", "coordinates": [[[-80.34946, 42.58523], [-80.32698, 42.58694], [-80.3297, 42.59652], [-80.34589, 42.60099], [-80.34575, 42.59955], [-80.34471, 42.59853], [-80.34542, 42.59679], [-80.34484, 42.59664], [-80.34865, 42.58723], [-80.35891, 42.58597], [-80.35659, 42.59046], [-80.35901, 42.59019], [-80.3628, 42.58562], [-80.36524, 42.58606], [-80.36867, 42.58571], [-80.37364, 42.57666], [-80.37075, 42.57632], [-80.36523, 42.57515], [-80.36255, 42.57496], [-80.35945, 42.57437], [-80.3539, 42.5736], [-80.34946, 42.58523]]]}}, {"type": "Feature", "properties": {"id": "on-fed-10", "name": "Mississippi Lake Migratory Bird Sanctuary", "designation": "Migratory Bird Sanctuary", "hunting_allowed": false, "firearm_prohibited": true, "citation": "Migratory Bird Sanctuary Regulations, C.R.C., c. 1036, under the Migratory Birds Convention Act, 1994", "basis": "mbs_closed"}, "geometry": {"type": "Polygon", "coordinates": [[[-76.23237, 45.0506], [-76.23881, 45.05184], [-76.2404, 45.05228], [-76.24203, 45.05231], [-76.24295, 45.05217], [-76.24369, 45.05245], [-76.24555, 45.05135], [-76.24487, 45.05107], [-76.24311, 45.04969], [-76.24585, 45.04807], [-76.24491, 45.04733], [-76.24601, 45.0467], [-76.23877, 45.04102], [-76.23819, 45.04135], [-76.2372, 45.04052], [-76.24004, 45.03881], [-76.23585, 45.03546], [-76.2387, 45.03356], [-76.23121, 45.02749], [-76.22381, 45.03217], [-76.22383, 45.03386], [-76.22343, 45.03614], [-76.22318, 45.03676], [-76.22175, 45.0386], [-76.22122, 45.04031], [-76.22049, 45.04093], [-76.22027, 45.04173], [-76.22084, 45.04292], [-76.22146, 45.04354], [-76.22596, 45.04539], [-76.22919, 45.04782], [-76.23139, 45.05007], [-76.23237, 45.0506]], [[-76.23624, 45.03744], [-76.23656, 45.03892], [-76.23558, 45.03937], [-76.235, 45.03865], [-76.23365, 45.0381], [-76.23624, 45.03744]]]}}, {"type": "Feature", "properties": {"id": "on-fed-11", "name": "Mississippi Lake National Wildlife Area", "designation": "National Wildlife Area", "hunting_allowed": false, "citation": "Wildlife Area Regulations, C.R.C., c. 1609, under the Canada Wildlife Act", "basis": "nwa_closed"}, "geometry": {"type": "MultiPolygon", "coordinates": [[[[-76.22584, 45.03085], [-76.22586, 45.03163], [-76.226, 45.03179], [-76.22717, 45.03207], [-76.22767, 45.0312], [-76.22763, 45.03066], [-76.22779, 45.03056], [-76.22786, 45.03017], [-76.22883, 45.02958], [-76.22891, 45.02939], [-76.22865, 45.02909], [-76.22584, 45.03085]]], [[[-76.22526, 45.03389], [-76.22489, 45.03672], [-76.2242, 45.03807], [-76.22503, 45.03727], [-76.22808, 45.03565], [-76.229, 45.03469], [-76.22903, 45.03437], [-76.22764, 45.03346], [-76.2257, 45.03337], [-76.22526, 45.03389]]], [[[-76.22814, 45.0459], [-76.23057, 45.04444], [-76.22764, 45.04325], [-76.22654, 45.04305], [-76.22511, 45.04242], [-76.22463, 45.04204], [-76.22449, 45.04185], [-76.22429, 45.0404], [-76.22444, 45.03918], [-76.22406, 45.03878], [-76.22395, 45.03895], [-76.22409, 45.03911], [-76.22335, 45.04107], [-76.2234, 45.04146], [-76.22308, 45.04177], [-76.22814, 45.0459]]], [[[-76.23642, 45.05427], [-76.23836, 45.05565], [-76.24001, 45.05466], [-76.23876, 45.05435], [-76.23532, 45.05223], [-76.23439, 45.05182], [-76.23203, 45.05167], [-76.23115, 45.05135], [-76.22966, 45.05032], [-76.228, 45.04882], [-76.22787, 45.04851], [-76.22798, 45.04843], [-76.22768, 45.048], [-76.22642, 45.04713], [-76.22609, 45.04733], [-76.22762, 45.04947], [-76.2284, 45.04977], [-76.2292, 45.05075], [-76.23059, 45.05136], [-76.23137, 45.0522], [-76.23479, 45.05349], [-76.23515, 45.05459], [-76.23642, 45.05427]]], [[[-76.23221, 45.04975], [-76.23607, 45.05035], [-76.23691, 45.05022], [-76.23832, 45.04965], [-76.23991, 45.04947], [-76.24243, 45.04968], [-76.24365, 45.05028], [-76.23682, 45.04498], [-76.23427, 45.04532], [-76.2326, 45.04496], [-76.23177, 45.04459], [-76.23088, 45.0445], [-76.22817, 45.04612], [-76.23098, 45.04881], [-76.23221, 45.04975]]], [[[-76.23555, 45.03936], [-76.23663, 45.03983], [-76.23712, 45.04052], [-76.24, 45.03879], [-76.23418, 45.03406], [-76.23704, 45.03226], [-76.23118, 45.0275], [-76.2289, 45.02906], [-76.22914, 45.02955], [-76.22862, 45.02992], [-76.22875, 45.02998], [-76.22863, 45.03021], [-76.22882, 45.03037], [-76.22841, 45.03107], [-76.22841, 45.0315], [-76.22808, 45.03169], [-76.22815, 45.03222], [-76.22985, 45.03268], [-76.2307, 45.03344], [-76.23097, 45.03403], [-76.231, 45.03457], [-76.23067, 45.03539], [-76.23089, 45.03602], [-76.23124, 45.03634], [-76.23326, 45.03789], [-76.23497, 45.03857], [-76.23555, 45.03936]]], [[[-76.23997, 45.03905], [-76.23407, 45.04257], [-76.24317, 45.04963], [-76.24584, 45.04801], [-76.2442, 45.04679], [-76.24748, 45.04486], [-76.23997, 45.03905]]]]}}, {"type": "Feature", "properties": {"id": "on-fed-12", "name": "Mohawk Island National Wildlife Area", "designation": "National Wildlife Area", "hunting_allowed": false, "citation": "Wildlife Area Regulations, C.R.C., c. 1609, under the Canada Wildlife Act", "basis": "nwa_closed"}, "geometry": {"type": "Polygon", "coordinates": [[[-79.52207, 42.83436], [-79.52293, 42.83514], [-79.52325, 42.83506], [-79.52395, 42.83445], [-79.52362, 42.83432], [-79.52287, 42.8345], [-79.52268, 42.83427], [-79.52317, 42.83396], [-79.52295, 42.83376], [-79.52239, 42.83383], [-79.52207, 42.83436]]]}}, {"type": "Feature", "properties": {"id": "on-fed-13", "name": "Moose River Migratory Bird Sanctuary", "designation": "Migratory Bird Sanctuary", "hunting_allowed": false, "firearm_prohibited": true, "citation": "Migratory Bird Sanctuary Regulations, C.R.C., c. 1036, under the Migratory Birds Convention Act, 1994", "basis": "mbs_closed"}, "geometry": {"type": "MultiPolygon", "coordinates": [[[[-80.42511, 51.37488], [-80.42688, 51.37628], [-80.42859, 51.37628], [-80.43158, 51.37512], [-80.43561, 51.37292], [-80.43561, 51.37268], [-80.43451, 51.37268], [-80.43292, 51.37311], [-80.42859, 51.37347], [-80.42572, 51.3739], [-80.42401, 51.37469], [-80.42438, 51.37488], [-80.42511, 51.37488]]], [[[-80.46588, 51.35748], [-80.4646, 51.35852], [-80.46368, 51.3595], [-80.46301, 51.36047], [-80.4632, 51.36072], [-80.4635, 51.36072], [-80.4657, 51.35852], [-80.46661, 51.35809], [-80.46771, 51.35791], [-80.46838, 51.35748], [-80.46771, 51.3573], [-80.46808, 51.35687], [-80.46918, 51.35651], [-80.47278, 51.35468], [-80.4729, 51.35431], [-80.47461, 51.35352], [-80.4751, 51.3537], [-80.47729, 51.35272], [-80.4826, 51.34888], [-80.48468, 51.34772], [-80.48578, 51.34668], [-80.48633, 51.34589], [-80.48688, 51.34448], [-80.4873, 51.34167], [-80.487, 51.34113], [-80.48651, 51.34088], [-80.4859, 51.3399], [-80.48541, 51.34052], [-80.48499, 51.34167], [-80.48419, 51.34229], [-80.48419, 51.34271], [-80.4826, 51.34448], [-80.48041, 51.34631], [-80.47919, 51.34692], [-80.4787, 51.34747], [-80.4798, 51.34747], [-80.48053, 51.34729], [-80.48059, 51.34747], [-80.47809, 51.34888], [-80.47742, 51.34949], [-80.47662, 51.34949], [-80.47528, 51.35071], [-80.47333, 51.35132], [-80.47009, 51.35327], [-80.46881, 51.35449], [-80.4679, 51.3551], [-80.46741, 51.3551], [-80.46649, 51.35608], [-80.46588, 51.35748]]], [[[-80.38159, 51.33832], [-80.3819, 51.3385], [-80.38239, 51.33832], [-80.38312, 51.33832], [-80.38361, 51.3385], [-80.38531, 51.33868], [-80.37402, 51.31989], [-80.37311, 51.3197], [-80.37299, 51.31952], [-80.37061, 51.31927], [-80.36591, 51.31732], [-80.36578, 51.31708], [-80.36493, 51.31671], [-80.36438, 51.31671], [-80.36432, 51.31653], [-80.36359, 51.31628], [-80.36108, 51.31628], [-80.3609, 51.31653], [-80.36041, 51.31653], [-80.35822, 51.31787], [-80.35602, 51.31891], [-80.35419, 51.31769], [-80.35278, 51.31732], [-80.35059, 51.3161], [-80.349, 51.3147], [-80.34851, 51.31451], [-80.34851, 51.31427], [-80.34692, 51.31293], [-80.34668, 51.31293], [-80.34448, 51.31128], [-80.34308, 51.31091], [-80.34222, 51.31049], [-80.341, 51.3103], [-80.34088, 51.31012], [-80.33978, 51.30988], [-80.33899, 51.30988], [-80.33551, 51.3089], [-80.33331, 51.30847], [-80.32971, 51.30829], [-80.32739, 51.30792], [-80.3252, 51.31049], [-80.32251, 51.31189], [-80.32239, 51.3125], [-80.32178, 51.31348], [-80.32178, 51.31372], [-80.32013, 51.31549], [-80.31989, 51.31549], [-80.31891, 51.31812], [-80.3194, 51.31873], [-80.31909, 51.31927], [-80.31921, 51.3197], [-80.31848, 51.32068], [-80.31848, 51.32092], [-80.31812, 51.32147], [-80.31659, 51.32269], [-80.31671, 51.32288], [-80.31781, 51.3233], [-80.3194, 51.32349], [-80.32031, 51.32391], [-80.32068, 51.32428], [-80.32269, 51.32507], [-80.32361, 51.32507], [-80.32422, 51.3255], [-80.32568, 51.32532], [-80.32629, 51.32489], [-80.32819, 51.32489], [-80.33179, 51.3255], [-80.3327, 51.3255], [-80.33441, 51.32672], [-80.33551, 51.3269], [-80.33771, 51.32672], [-80.34479, 51.32672], [-80.3476, 51.3277], [-80.34979, 51.32953], [-80.35101, 51.33008], [-80.35211, 51.33032], [-80.3537, 51.3313], [-80.35419, 51.33148], [-80.35748, 51.33173], [-80.35779, 51.33289], [-80.35901, 51.3335], [-80.35992, 51.33368], [-80.36182, 51.33368], [-80.3631, 51.33331], [-80.36328, 51.3335], [-80.36371, 51.3335], [-80.36511, 51.33313], [-80.36548, 51.3335], [-80.36548, 51.33368], [-80.36469, 51.33447], [-80.36469, 51.33508], [-80.36499, 51.33551], [-80.3656, 51.33588], [-80.3667, 51.33588], [-80.36688, 51.33612], [-80.36731, 51.33588], [-80.36749, 51.33588], [-80.36768, 51.33612], [-80.36932, 51.33612], [-80.36951, 51.3363], [-80.3703, 51.3363], [-80.37109, 51.33673], [-80.3728, 51.33691], [-80.37311, 51.33673], [-80.37378, 51.33691], [-80.37408, 51.33649], [-80.37451, 51.3363], [-80.37518, 51.33649], [-80.37549, 51.33673], [-80.37628, 51.33673], [-80.37708, 51.33728], [-80.37769, 51.33728], [-80.37811, 51.33771], [-80.38159, 51.33832]]], [[[-80.4231, 51.37329], [-80.42688, 51.37268], [-80.42969, 51.37268], [-80.43439, 51.37189], [-80.43738, 51.37091], [-80.43799, 51.37048], [-80.44141, 51.3689], [-80.44189, 51.3689], [-80.44501, 51.36749], [-80.45209, 51.36469], [-80.45282, 51.36407], [-80.45331, 51.36407], [-80.45453, 51.36328], [-80.45721, 51.36249], [-80.46051, 51.36047], [-80.4613, 51.35931], [-80.46301, 51.35529], [-80.46411, 51.35388], [-80.46521, 51.35291], [-80.46948, 51.35071], [-80.46991, 51.35028], [-80.47137, 51.34967], [-80.47229, 51.34949], [-80.474, 51.34833], [-80.47888, 51.34613], [-80.47998, 51.34552], [-80.48041, 51.34491], [-80.48199, 51.34369], [-80.4826, 51.34369], [-80.48328, 51.34308], [-80.48871, 51.33209], [-80.48993, 51.33008], [-80.49109, 51.32892], [-80.49152, 51.32751], [-80.49139, 51.32727], [-80.49048, 51.32672], [-80.4892, 51.32672], [-80.48822, 51.3269], [-80.4881, 51.32672], [-80.48761, 51.32672], [-80.48151, 51.32709], [-80.47882, 51.32709], [-80.4776, 51.32727], [-80.4765, 51.32709], [-80.47278, 51.3277], [-80.47119, 51.32751], [-80.46973, 51.32788], [-80.46851, 51.32788], [-80.46808, 51.32812], [-80.4671, 51.32813], [-80.466, 51.32849], [-80.4624, 51.3299], [-80.46228, 51.33008], [-80.4585, 51.33173], [-80.45721, 51.33209], [-80.45471, 51.33313], [-80.45178, 51.33472], [-80.44928, 51.33569], [-80.43732, 51.34253], [-80.43329, 51.34509], [-80.43079, 51.34692], [-80.4281, 51.34851], [-80.42682, 51.34949], [-80.4256, 51.34991], [-80.42493, 51.35052], [-80.42419, 51.35089], [-80.42358, 51.3515], [-80.42102, 51.35309], [-80.41858, 51.3551], [-80.41699, 51.3573], [-80.41589, 51.36047], [-80.41602, 51.3623], [-80.41589, 51.36249], [-80.41589, 51.36371], [-80.41608, 51.36432], [-80.41748, 51.36609], [-80.4176, 51.36652], [-80.4184, 51.36688], [-80.41931, 51.36768], [-80.41998, 51.36871], [-80.4201, 51.36951], [-80.4198, 51.3703], [-80.42023, 51.37152], [-80.42102, 51.37268], [-80.4231, 51.37329]]]]}}, {"type": "Feature", "properties": {"id": "on-fed-14", "name": "Moose River Migratory Bird Sanctuary", "designation": "Migratory Bird Sanctuary", "hunting_allowed": false, "firearm_prohibited": true, "citation": "Migratory Bird Sanctuary Regulations, C.R.C., c. 1036, under the Migratory Birds Convention Act, 1994", "basis": "mbs_closed"}, "geometry": {"type": "MultiPolygon", "coordinates": [[[[-80.3811, 51.34027], [-80.38318, 51.34027], [-80.38348, 51.34052], [-80.38452, 51.34052], [-80.3847, 51.3407], [-80.38641, 51.34052], [-80.38538, 51.33868], [-80.38361, 51.3385], [-80.38312, 51.33832], [-80.38239, 51.33832], [-80.3819, 51.3385], [-80.38068, 51.33807], [-80.37811, 51.33771], [-80.37769, 51.33728], [-80.37708, 51.33728], [-80.37628, 51.33673], [-80.37549, 51.33673], [-80.37518, 51.33649], [-80.37451, 51.3363], [-80.37408, 51.33649], [-80.37378, 51.33691], [-80.37311, 51.33673], [-80.3728, 51.33691], [-80.37109, 51.33673], [-80.3703, 51.3363], [-80.36951, 51.3363], [-80.36932, 51.33612], [-80.36768, 51.33612], [-80.36749, 51.33588], [-80.36731, 51.33588], [-80.36688, 51.33612], [-80.3667, 51.33588], [-80.3656, 51.33588], [-80.36499, 51.33551], [-80.36469, 51.33508], [-80.36469, 51.33447], [-80.36548, 51.33368], [-80.36548, 51.3335], [-80.36511, 51.33313], [-80.36371, 51.3335], [-80.36328, 51.3335], [-80.3631, 51.33331], [-80.36182, 51.33368], [-80.35992, 51.33368], [-80.35901, 51.3335], [-80.35779, 51.33289], [-80.35748, 51.33173], [-80.35419, 51.33148], [-80.3537, 51.3313], [-80.35211, 51.33032], [-80.35101, 51.33008], [-80.34979, 51.32953], [-80.3476, 51.3277], [-80.34479, 51.32672], [-80.33771, 51.32672], [-80.33551, 51.3269], [-80.33441, 51.32672], [-80.3327, 51.3255], [-80.33179, 51.3255], [-80.32819, 51.32489], [-80.32629, 51.32489], [-80.32568, 51.32532], [-80.32422, 51.3255], [-80.32361, 51.32507], [-80.32269, 51.32507], [-80.32068, 51.32428], [-80.32031, 51.32391], [-80.3194, 51.32349], [-80.31781, 51.3233], [-80.31671, 51.32288], [-80.31659, 51.32269], [-80.31439, 51.32428], [-80.31451, 51.32452], [-80.31512, 51.32489], [-80.31549, 51.32489], [-80.31549, 51.32507], [-80.31689, 51.32532], [-80.3172, 51.3255], [-80.31781, 51.3255], [-80.31891, 51.32611], [-80.3197, 51.32629], [-80.3197, 51.32648], [-80.32098, 51.3269], [-80.32141, 51.3269], [-80.32159, 51.32709], [-80.32239, 51.32709], [-80.32251, 51.32727], [-80.32361, 51.3277], [-80.32483, 51.32788], [-80.32489, 51.32812], [-80.3255, 51.32813], [-80.32751, 51.32867], [-80.33008, 51.32867], [-80.33112, 51.32831], [-80.33179, 51.3291], [-80.33319, 51.3299], [-80.33441, 51.33008], [-80.33478, 51.33032], [-80.33539, 51.33032], [-80.33551, 51.33051], [-80.33618, 51.33051], [-80.3363, 51.33069], [-80.33679, 51.33069], [-80.33759, 51.33112], [-80.33838, 51.3313], [-80.34052, 51.33148], [-80.34222, 51.33209], [-80.3432, 51.33209], [-80.34351, 51.33228], [-80.34448, 51.33228], [-80.34479, 51.33252], [-80.34552, 51.33252], [-80.34601, 51.33289], [-80.3476, 51.33331], [-80.34772, 51.3335], [-80.35498, 51.3335], [-80.35559, 51.33429], [-80.35699, 51.33508], [-80.35742, 51.33508], [-80.3576, 51.33533], [-80.35828, 51.33533], [-80.3584, 51.33551], [-80.35999, 51.33551], [-80.36041, 51.33569], [-80.36188, 51.33569], [-80.36188, 51.33588], [-80.36243, 51.33649], [-80.36261, 51.33649], [-80.36261, 51.33673], [-80.36469, 51.33771], [-80.36548, 51.33771], [-80.36578, 51.33789], [-80.36823, 51.33789], [-80.36841, 51.33807], [-80.36908, 51.33807], [-80.36963, 51.3385], [-80.3703, 51.3385], [-80.37048, 51.33868], [-80.37268, 51.33868], [-80.37268, 51.33893], [-80.37311, 51.33893], [-80.37341, 51.33868], [-80.37469, 51.33868], [-80.37488, 51.3385], [-80.37549, 51.33893], [-80.3764, 51.33911], [-80.3772, 51.33948], [-80.37799, 51.33948], [-80.3783, 51.33972], [-80.37903, 51.33972], [-80.37921, 51.3399], [-80.38, 51.34009], [-80.38092, 51.34009], [-80.3811, 51.34027]]], [[[-80.4259, 51.37811], [-80.4292, 51.37811], [-80.42932, 51.37793], [-80.43011, 51.37793], [-80.43018, 51.37769], [-80.4306, 51.37769], [-80.4317, 51.37708], [-80.43311, 51.37671], [-80.43329, 51.37628], [-80.43408, 51.37592], [-80.435, 51.37488], [-80.43689, 51.3739], [-80.43872, 51.37329], [-80.44061, 51.37207], [-80.44202, 51.3717], [-80.4422, 51.37152], [-80.44281, 51.37152], [-80.4436, 51.37091], [-80.44391, 51.37091], [-80.44641, 51.36987], [-80.44897, 51.36853], [-80.44928, 51.3681], [-80.45001, 51.36768], [-80.45068, 51.36768], [-80.45551, 51.36548], [-80.45679, 51.3653], [-80.4577, 51.36469], [-80.45831, 51.36469], [-80.46143, 51.36267], [-80.46252, 51.3623], [-80.4632, 51.36169], [-80.47729, 51.3537], [-80.479, 51.35229], [-80.47998, 51.35168], [-80.48029, 51.35168], [-80.48071, 51.35107], [-80.4823, 51.3501], [-80.4845, 51.34833], [-80.4848, 51.34833], [-80.48639, 51.34729], [-80.48718, 51.3465], [-80.48712, 51.34589], [-80.48798, 51.34253], [-80.48798, 51.34192], [-80.487, 51.34088], [-80.487, 51.34052], [-80.48938, 51.33551], [-80.48962, 51.33533], [-80.49188, 51.32971], [-80.49268, 51.32812], [-80.49359, 51.3269], [-80.49371, 51.32629], [-80.49359, 51.32611], [-80.492, 51.32507], [-80.4845, 51.32507], [-80.48437, 51.32532], [-80.48022, 51.32532], [-80.47968, 51.3255], [-80.4743, 51.3255], [-80.47418, 51.32568], [-80.4704, 51.32568], [-80.47009, 51.32593], [-80.46912, 51.32611], [-80.4671, 51.32629], [-80.46698, 51.32648], [-80.46661, 51.32648], [-80.46179, 51.32831], [-80.46088, 51.32849], [-80.46082, 51.32867], [-80.46039, 51.32867], [-80.45972, 51.3291], [-80.45941, 51.3291], [-80.45929, 51.32928], [-80.4585, 51.32928], [-80.45709, 51.33008], [-80.4552, 51.33051], [-80.4552, 51.33069], [-80.45441, 51.33087], [-80.45398, 51.3313], [-80.45313, 51.33148], [-80.45258, 51.33191], [-80.44971, 51.33331], [-80.44818, 51.33368], [-80.44769, 51.33411], [-80.44739, 51.33411], [-80.44733, 51.33429], [-80.44659, 51.33447], [-80.44592, 51.33508], [-80.44489, 51.33551], [-80.44141, 51.33752], [-80.4408, 51.33807], [-80.4389, 51.33893], [-80.43591, 51.34088], [-80.43469, 51.34149], [-80.43469, 51.34167], [-80.43109, 51.34369], [-80.42938, 51.34509], [-80.42889, 51.34528], [-80.42853, 51.3457], [-80.42688, 51.3465], [-80.42688, 51.34668], [-80.42511, 51.34772], [-80.4248, 51.34808], [-80.42438, 51.34808], [-80.42419, 51.34833], [-80.42358, 51.34851], [-80.42291, 51.34912], [-80.42187, 51.34967], [-80.42187, 51.34991], [-80.42139, 51.3501], [-80.42108, 51.35052], [-80.4198, 51.35107], [-80.41962, 51.35132], [-80.41888, 51.35168], [-80.41882, 51.35193], [-80.41791, 51.35248], [-80.4176, 51.35291], [-80.41718, 51.35309], [-80.41571, 51.35449], [-80.41461, 51.3559], [-80.41351, 51.35773], [-80.41278, 51.36047], [-80.4129, 51.3645], [-80.41351, 51.36548], [-80.41351, 51.36572], [-80.41461, 51.36688], [-80.41461, 51.36731], [-80.41663, 51.36871], [-80.41681, 51.36932], [-80.41699, 51.36932], [-80.41699, 51.36969], [-80.41669, 51.37012], [-80.41681, 51.37128], [-80.41699, 51.37128], [-80.41718, 51.37207], [-80.41748, 51.37231], [-80.41809, 51.37347], [-80.41858, 51.3739], [-80.41968, 51.37433], [-80.4201, 51.37469], [-80.4209, 51.37488], [-80.42108, 51.37549], [-80.42212, 51.37628], [-80.42279, 51.37653], [-80.42328, 51.37653], [-80.42328, 51.37671], [-80.42371, 51.37689], [-80.42401, 51.37732], [-80.42468, 51.37769], [-80.42578, 51.37793], [-80.4259, 51.37811]], [[-80.43561, 51.37292], [-80.43158, 51.37512], [-80.42859, 51.37628], [-80.42688, 51.37628], [-80.42511, 51.37488], [-80.42438, 51.37488], [-80.42401, 51.37469], [-80.42572, 51.3739], [-80.42859, 51.37347], [-80.43292, 51.37311], [-80.43451, 51.37268], [-80.43561, 51.37268], [-80.43561, 51.37292]], [[-80.4787, 51.34747], [-80.47919, 51.34692], [-80.48041, 51.34631], [-80.4826, 51.34448], [-80.48419, 51.34271], [-80.48419, 51.34229], [-80.48499, 51.34167], [-80.48541, 51.34052], [-80.4859, 51.3399], [-80.48651, 51.34088], [-80.487, 51.34113], [-80.4873, 51.34167], [-80.48688, 51.34448], [-80.48633, 51.34589], [-80.48578, 51.34668], [-80.48468, 51.34772], [-80.4826, 51.34888], [-80.47729, 51.35272], [-80.4751, 51.3537], [-80.47461, 51.35352], [-80.4729, 51.35431], [-80.47278, 51.35468], [-80.46918, 51.35651], [-80.46808, 51.35687], [-80.46771, 51.3573], [-80.46838, 51.35748], [-80.46771, 51.35791], [-80.46661, 51.35809], [-80.4657, 51.35852], [-80.4635, 51.36072], [-80.4632, 51.36072], [-80.46301, 51.36047], [-80.46368, 51.3595], [-80.4646, 51.35852], [-80.46588, 51.35748], [-80.46649, 51.35608], [-80.46741, 51.3551], [-80.4679, 51.3551], [-80.46881, 51.35449], [-80.47009, 51.35327], [-80.47162, 51.35229], [-80.47333, 51.35132], [-80.47528, 51.35071], [-80.47662, 51.34949], [-80.47742, 51.34949], [-80.47809, 51.34888], [-80.48059, 51.34747], [-80.48053, 51.34729], [-80.4798, 51.34747], [-80.4787, 51.34747]], [[-80.43439, 51.37189], [-80.42969, 51.37268], [-80.42688, 51.37268], [-80.42358, 51.37329], [-80.4231, 51.37329], [-80.42102, 51.37268], [-80.42023, 51.37152], [-80.4198, 51.3703], [-80.4201, 51.36951], [-80.41998, 51.36871], [-80.41931, 51.36768], [-80.4184, 51.36688], [-80.4176, 51.36652], [-80.41748, 51.36609], [-80.41608, 51.36432], [-80.41589, 51.36371], [-80.41589, 51.36249], [-80.41602, 51.3623], [-80.41589, 51.36047], [-80.41699, 51.3573], [-80.41858, 51.3551], [-80.42102, 51.35309], [-80.42358, 51.3515], [-80.42419, 51.35089], [-80.42493, 51.35052], [-80.4256, 51.34991], [-80.42682, 51.34949], [-80.4281, 51.34851], [-80.43079, 51.34692], [-80.43512, 51.34387], [-80.44171, 51.3399], [-80.44928, 51.33569], [-80.45178, 51.33472], [-80.45471, 51.33313], [-80.45721, 51.33209], [-80.4585, 51.33173], [-80.46228, 51.33008], [-80.4624, 51.3299], [-80.466, 51.32849], [-80.4671, 51.32813], [-80.46808, 51.32812], [-80.46851, 51.32788], [-80.46973, 51.32788], [-80.47119, 51.32751], [-80.47278, 51.3277], [-80.4765, 51.32709], [-80.4776, 51.32727], [-80.47882, 51.32709], [-80.48151, 51.32709], [-80.48761, 51.32672], [-80.4881, 51.32672], [-80.48822, 51.3269], [-80.4892, 51.32672], [-80.49048, 51.32672], [-80.49139, 51.32727], [-80.49152, 51.32751], [-80.49109, 51.32892], [-80.48993, 51.33008], [-80.48871, 51.33209], [-80.48328, 51.34308], [-80.4826, 51.34369], [-80.48199, 51.34369], [-80.48041, 51.34491], [-80.47998, 51.34552], [-80.47888, 51.34613], [-80.474, 51.34833], [-80.47229, 51.34949], [-80.47137, 51.34967], [-80.46991, 51.35028], [-80.46948, 51.35071], [-80.46521, 51.35291], [-80.46411, 51.35388], [-80.46301, 51.35529], [-80.4613, 51.35931], [-80.46051, 51.36047], [-80.45721, 51.36249], [-80.45453, 51.36328], [-80.45331, 51.36407], [-80.45282, 51.36407], [-80.45209, 51.36469], [-80.44501, 51.36749], [-80.44189, 51.3689], [-80.44141, 51.3689], [-80.43799, 51.37048], [-80.43738, 51.37091], [-80.43439, 51.37189]]]]}}, {"type": "Feature", "properties": {"id": "on-fed-15", "name": "Wellers Bay National Wildlife Area", "designation": "National Wildlife Area", "hunting_allowed": false, "entry_prohibited": true, "reg_paragraph": "s. 3.3(1)(c)", "citation": "Wildlife Area Regulations, C.R.C., c. 1609, under the Canada Wildlife Act", "basis": "nwa_no_entry"}, "geometry": {"type": "MultiPolygon", "coordinates": [[[[-77.59965, 44.01109], [-77.59905, 44.01174], [-77.59892, 44.01212], [-77.5999, 44.01139], [-77.60088, 44.01122], [-77.60084, 44.01093], [-77.60114, 44.01045], [-77.60109, 44.01029], [-77.60166, 44.01011], [-77.60082, 44.01026], [-77.59965, 44.01109]]], [[[-77.5964, 44.01787], [-77.59686, 44.0178], [-77.59713, 44.01744], [-77.59815, 44.01695], [-77.59926, 44.01592], [-77.59924, 44.0156], [-77.59867, 44.01574], [-77.59804, 44.01539], [-77.59651, 44.0158], [-77.59598, 44.0164], [-77.5958, 44.01696], [-77.59588, 44.01734], [-77.5964, 44.01787]]], [[[-77.60594, 44.01498], [-77.60333, 44.01602], [-77.60259, 44.0166], [-77.60494, 44.01662], [-77.60603, 44.01605], [-77.60589, 44.01569], [-77.60624, 44.01594], [-77.60658, 44.01587], [-77.60729, 44.01468], [-77.60734, 44.01385], [-77.60701, 44.01195], [-77.60799, 44.0098], [-77.611, 44.00904], [-77.61236, 44.0082], [-77.61232, 44.00798], [-77.61173, 44.00757], [-77.61119, 44.00745], [-77.60813, 44.00728], [-77.59138, 43.99643], [-77.58929, 43.99492], [-77.58626, 43.9923], [-77.57796, 43.98417], [-77.57759, 43.98387], [-77.57698, 43.98413], [-77.57704, 43.98511], [-77.57769, 43.9857], [-77.57741, 43.98651], [-77.57806, 43.98669], [-77.57801, 43.98681], [-77.57823, 43.98694], [-77.57831, 43.9876], [-77.57911, 43.98767], [-77.58072, 43.98892], [-77.58101, 43.98971], [-77.58135, 43.99016], [-77.58135, 43.99061], [-77.58157, 43.99108], [-77.58201, 43.99151], [-77.58556, 43.99324], [-77.58792, 43.9953], [-77.59024, 43.99678], [-77.59066, 43.9972], [-77.59117, 43.99722], [-77.59249, 43.99785], [-77.5934, 43.9989], [-77.59435, 43.99936], [-77.59467, 43.99925], [-77.59527, 43.99985], [-77.59489, 44.00033], [-77.59555, 44.00068], [-77.59691, 44.00098], [-77.59881, 44.00179], [-77.59909, 44.00234], [-77.60064, 44.00349], [-77.60102, 44.00487], [-77.60151, 44.00513], [-77.60209, 44.00505], [-77.60244, 44.00589], [-77.60296, 44.00601], [-77.60341, 44.00648], [-77.60501, 44.00669], [-77.60518, 44.007], [-77.60493, 44.00744], [-77.60564, 44.00744], [-77.60492, 44.00864], [-77.60532, 44.00916], [-77.60531, 44.0095], [-77.60483, 44.00994], [-77.60343, 44.01059], [-77.60273, 44.01086], [-77.60207, 44.0109], [-77.60207, 44.01109], [-77.60258, 44.01108], [-77.60278, 44.01175], [-77.60231, 44.01205], [-77.60172, 44.0131], [-77.60218, 44.01366], [-77.60316, 44.01375], [-77.60271, 44.01384], [-77.60333, 44.01415], [-77.60368, 44.014], [-77.60361, 44.01374], [-77.6046, 44.01334], [-77.60495, 44.01338], [-77.60531, 44.01364], [-77.6058, 44.01357], [-77.60577, 44.01388], [-77.60655, 44.01405], [-77.60647, 44.01425], [-77.6058, 44.01459], [-77.60581, 44.01477], [-77.60602, 44.01488], [-77.60594, 44.01498]]]]}}, {"type": "Feature", "properties": {"id": "on-fed-16", "name": "Prince Edward Point National Wildlife Area", "designation": "National Wildlife Area", "hunting_allowed": false, "citation": "Wildlife Area Regulations, C.R.C., c. 1609, under the Canada Wildlife Act", "basis": "nwa_closed"}, "geometry": {"type": "MultiPolygon", "coordinates": [[[[-76.86182, 43.93681], [-76.86213, 43.93723], [-76.86223, 43.93715], [-76.86182, 43.93681]]], [[[-76.90288, 43.93928], [-76.89923, 43.94017], [-76.89857, 43.94037], [-76.89893, 43.94059], [-76.90139, 43.94054], [-76.90257, 43.94012], [-76.90307, 43.9397], [-76.90288, 43.93928]]], [[[-76.86469, 43.9481], [-76.86605, 43.94812], [-76.87025, 43.94605], [-76.87276, 43.94627], [-76.8744, 43.94704], [-76.87527, 43.94719], [-76.87592, 43.94702], [-76.87741, 43.94618], [-76.88024, 43.94627], [-76.88485, 43.94528], [-76.88427, 43.94496], [-76.87978, 43.94605], [-76.87333, 43.94614], [-76.87055, 43.94574], [-76.86884, 43.94569], [-76.86484, 43.94637], [-76.86433, 43.94633], [-76.86398, 43.94613], [-76.86313, 43.94515], [-76.86039, 43.93903], [-76.86057, 43.9385], [-76.86229, 43.9374], [-76.86211, 43.93726], [-76.86116, 43.93784], [-76.86123, 43.93739], [-76.86105, 43.93739], [-76.86098, 43.93807], [-76.86026, 43.93873], [-76.86003, 43.93955], [-76.85923, 43.94035], [-76.85908, 43.94118], [-76.86061, 43.94222], [-76.86135, 43.94338], [-76.86268, 43.94462], [-76.86309, 43.94531], [-76.8632, 43.946], [-76.86401, 43.94734], [-76.86469, 43.9481]]], [[[-76.86228, 43.93713], [-76.86264, 43.93742], [-76.86079, 43.9386], [-76.86063, 43.93896], [-76.8633, 43.94509], [-76.86416, 43.94607], [-76.86467, 43.94624], [-76.86883, 43.94555], [-76.87057, 43.9456], [-76.87334, 43.946], [-76.88012, 43.94587], [-76.8847, 43.94471], [-76.88076, 43.94231], [-76.8822, 43.94154], [-76.88436, 43.94318], [-76.886, 43.94206], [-76.88793, 43.94322], [-76.88955, 43.94254], [-76.90372, 43.93892], [-76.90844, 43.93727], [-76.88992, 43.92701], [-76.88817, 43.9281], [-76.88495, 43.92914], [-76.88341, 43.92943], [-76.87871, 43.92965], [-76.87596, 43.92908], [-76.87379, 43.92902], [-76.87311, 43.92873], [-76.87042, 43.92875], [-76.86835, 43.92998], [-76.868, 43.93045], [-76.8663, 43.93103], [-76.86339, 43.9317], [-76.86145, 43.93244], [-76.85964, 43.9334], [-76.85917, 43.93405], [-76.85929, 43.93557], [-76.85919, 43.936], [-76.86056, 43.93732], [-76.86063, 43.93725], [-76.86035, 43.93705], [-76.86221, 43.93611], [-76.86298, 43.93604], [-76.86374, 43.93569], [-76.8645, 43.93581], [-76.86336, 43.93663], [-76.86228, 43.93713]]]]}}, {"type": "Feature", "properties": {"id": "on-fed-17", "name": "Rideau Migratory Bird Sanctuary", "designation": "Migratory Bird Sanctuary", "hunting_allowed": false, "firearm_prohibited": true, "citation": "Migratory Bird Sanctuary Regulations, C.R.C., c. 1036, under the Migratory Birds Convention Act, 1994", "basis": "mbs_closed"}, "geometry": {"type": "Polygon", "coordinates": [[[-75.88056, 44.87787], [-75.8796, 44.8793], [-75.87956, 44.87993], [-75.87866, 44.88084], [-75.87838, 44.88138], [-75.87777, 44.88175], [-75.87785, 44.88182], [-75.85792, 44.89384], [-75.86004, 44.8957], [-75.86015, 44.89633], [-75.85929, 44.89826], [-75.85919, 44.89983], [-75.85899, 44.90025], [-75.85755, 44.90132], [-75.85651, 44.90235], [-75.85489, 44.90307], [-75.85184, 44.90361], [-75.84554, 44.90509], [-75.8401, 44.90924], [-75.84326, 44.91935], [-75.84689, 44.91851], [-75.86118, 44.91726], [-75.87028, 44.91416], [-75.87085, 44.91384], [-75.87102, 44.91319], [-75.87587, 44.9078], [-75.87645, 44.9039], [-75.87805, 44.89963], [-75.88065, 44.89759], [-75.88309, 44.89596], [-75.88479, 44.88964], [-75.88775, 44.88382], [-75.88056, 44.87787]]]}}, {"type": "Feature", "properties": {"id": "on-fed-18", "name": "Scotch Bonnet Island National Wildlife Area", "designation": "National Wildlife Area", "hunting_allowed": false, "entry_prohibited": true, "reg_paragraph": "s. 3.3(1)(d)", "citation": "Wildlife Area Regulations, C.R.C., c. 1609, under the Canada Wildlife Act", "basis": "nwa_no_entry"}, "geometry": {"type": "Polygon", "coordinates": [[[-77.54283, 43.89925], [-77.54205, 43.89938], [-77.53986, 43.90006], [-77.54223, 43.89983], [-77.54311, 43.89944], [-77.54283, 43.89925]]]}}, {"type": "Feature", "properties": {"id": "on-fed-19", "name": "St. Clair National Wildlife Area - Bear Creek Unit", "designation": "National Wildlife Area", "hunting_allowed": false, "citation": "Wildlife Area Regulations, C.R.C., c. 1609, under the Canada Wildlife Act", "basis": "nwa_closed"}, "geometry": {"type": "MultiPolygon", "coordinates": [[[[-82.39644, 42.53113], [-82.39463, 42.53135], [-82.39728, 42.53353], [-82.40212, 42.5314], [-82.40177, 42.53102], [-82.40156, 42.53016], [-82.40221, 42.52937], [-82.40333, 42.52854], [-82.40492, 42.52778], [-82.40226, 42.5257], [-82.39431, 42.53109], [-82.39447, 42.53122], [-82.39476, 42.53103], [-82.39648, 42.53083], [-82.39852, 42.53127], [-82.40112, 42.53112], [-82.40144, 42.53102], [-82.40131, 42.53042], [-82.40155, 42.53035], [-82.40177, 42.53125], [-82.40122, 42.53141], [-82.3985, 42.53158], [-82.39644, 42.53113]]], [[[-82.37781, 42.53827], [-82.38045, 42.54042], [-82.3832, 42.53854], [-82.38593, 42.54074], [-82.39505, 42.53451], [-82.39706, 42.53363], [-82.3944, 42.53143], [-82.39344, 42.53151], [-82.39163, 42.53101], [-82.39019, 42.53005], [-82.38839, 42.52959], [-82.38672, 42.52887], [-82.38374, 42.53091], [-82.38749, 42.534], [-82.38267, 42.5373], [-82.38108, 42.53603], [-82.37781, 42.53827]]]]}}, {"type": "Feature", "properties": {"id": "on-fed-20", "name": "St. Clair National Wildlife Area - St. Clair Unit", "designation": "National Wildlife Area", "hunting_allowed": false, "citation": "Wildlife Area Regulations, C.R.C., c. 1609, under the Canada Wildlife Act", "basis": "nwa_closed"}, "geometry": {"type": "Polygon", "coordinates": [[[-82.40571, 42.35968], [-82.38938, 42.3706], [-82.40027, 42.37956], [-82.41661, 42.36864], [-82.40571, 42.35968]]]}}, {"type": "Feature", "properties": {"id": "on-fed-21", "name": "St. Joseph Island Migratory Bird Sanctuary", "designation": "Migratory Bird Sanctuary", "hunting_allowed": false, "firearm_prohibited": true, "citation": "Migratory Bird Sanctuary Regulations, C.R.C., c. 1036, under the Migratory Birds Convention Act, 1994", "basis": "mbs_closed"}, "geometry": {"type": "Polygon", "coordinates": [[[-83.9035, 46.06049], [-83.89836, 46.06443], [-83.91792, 46.08637], [-83.94663, 46.07419], [-83.96399, 46.0761], [-83.95551, 46.05688], [-83.9035, 46.06049]]]}}, {"type": "Feature", "properties": {"id": "on-fed-22", "name": "Upper Canada Migratory Bird Sanctuary", "designation": "Migratory Bird Sanctuary", "hunting_allowed": false, "firearm_prohibited": true, "citation": "Migratory Bird Sanctuary Regulations, C.R.C., c. 1036, under the Migratory Birds Convention Act, 1994", "basis": "mbs_closed"}, "geometry": {"type": "Polygon", "coordinates": [[[-75.00538, 44.95835], [-75.00325, 44.9624], [-74.99978, 44.96609], [-74.99969, 44.9717], [-74.99583, 44.97511], [-75.00568, 44.98704], [-75.00685, 44.98617], [-75.00842, 44.98532], [-75.01559, 44.9826], [-75.01812, 44.98206], [-75.02438, 44.9817], [-75.02691, 44.98128], [-75.03529, 44.9785], [-75.03884, 44.97683], [-75.04141, 44.9751], [-75.04335, 44.97333], [-75.05371, 44.96149], [-75.05364, 44.96131], [-75.05381, 44.96138], [-75.05394, 44.96122], [-75.05378, 44.96115], [-75.05405, 44.96111], [-75.05722, 44.95748], [-75.06085, 44.96172], [-75.06188, 44.96124], [-75.06367, 44.96332], [-75.06815, 44.96181], [-75.06891, 44.96274], [-75.07749, 44.95916], [-75.08104, 44.96335], [-75.10801, 44.9515], [-75.10607, 44.94969], [-75.0877, 44.92771], [-75.06502, 44.92944], [-75.06028, 44.93443], [-75.02705, 44.94658], [-75.00538, 44.95835]], [[-75.05003, 44.94888], [-75.03744, 44.95474], [-75.03784, 44.95521], [-75.03616, 44.95593], [-75.03512, 44.95587], [-75.03465, 44.95614], [-75.0343, 44.95615], [-75.03392, 44.95589], [-75.03426, 44.95456], [-75.03495, 44.95316], [-75.03636, 44.95201], [-75.0375, 44.95153], [-75.03823, 44.95078], [-75.04193, 44.94881], [-75.04204, 44.94926], [-75.0418, 44.94957], [-75.0432, 44.94884], [-75.04274, 44.9484], [-75.04498, 44.94719], [-75.04615, 44.94675], [-75.04638, 44.94728], [-75.04683, 44.94729], [-75.04906, 44.94858], [-75.05005, 44.94865], [-75.0509, 44.94833], [-75.05169, 44.94753], [-75.0513, 44.94735], [-75.05013, 44.94728], [-75.05042, 44.94696], [-75.05114, 44.94703], [-75.05157, 44.94655], [-75.05185, 44.94538], [-75.05222, 44.94516], [-75.05306, 44.94488], [-75.05357, 44.94502], [-75.05539, 44.94399], [-75.05623, 44.94499], [-75.05481, 44.94683], [-75.05003, 44.94888]]]}}, {"type": "Feature", "properties": {"id": "on-fed-23", "name": "Eleanor Island Migratory Bird Sanctuary", "designation": "Migratory Bird Sanctuary", "hunting_allowed": false, "firearm_prohibited": true, "citation": "Migratory Bird Sanctuary Regulations, C.R.C., c. 1036, under the Migratory Birds Convention Act, 1994", "basis": "mbs_closed"}, "geometry": {"type": "Polygon", "coordinates": [[[-79.39021, 44.98373], [-79.39095, 44.98384], [-79.39117, 44.98361], [-79.39123, 44.98272], [-79.39065, 44.98308], [-79.39013, 44.98307], [-79.38997, 44.98331], [-79.39021, 44.98373]]]}}, {"type": "Feature", "properties": {"id": "on-fed-24", "name": "Wye Marsh National Wildlife Area", "designation": "National Wildlife Area", "hunting_allowed": false, "citation": "Wildlife Area Regulations, C.R.C., c. 1609, under the Canada Wildlife Act", "basis": "nwa_closed"}, "geometry": {"type": "Polygon", "coordinates": [[[-79.83023, 44.72984], [-79.8328, 44.73278], [-79.83619, 44.73297], [-79.84011, 44.7338], [-79.83816, 44.73286], [-79.84197, 44.73125], [-79.84094, 44.73013], [-79.84087, 44.72708], [-79.84174, 44.72572], [-79.83785, 44.72743], [-79.83732, 44.72681], [-79.83023, 44.72984]]]}}]}