{"type": "FeatureCollection", "metadata": {"crs": "EPSG:4326", "province": "on", "layer": "land_use_plan", "layer_role": "context", "feature_count": 5, "coverage": "The Far North boundary, plus the four approved community based land use plans inside it (3,003,133 ha)", "boundary_accuracy": "approximate", "accuracy_note": "Simplified to roughly 200 m. It decides which explanation the card shows, and nothing legal turns on the line itself.", "default_name": "Land use plan area", "tenure": "Land use planning direction \u2014 not a hunting regulation", "basis_notes": {"far_north": "You are north of the Far North boundary. The Crown Land Use Policy Atlas thins out to nothing across much of this ground, so a parcel with no policy report here usually means the atlas does not reach it rather than that no direction exists. Hunting is still governed by the season and the WMU.", "community": "A community based land use plan covers this ground. It directs how Crown land here is planned and managed and is not a hunting regulation, so it neither opens nor closes the season \u2014 but it is the closest thing to area-specific direction the province publishes for the Far North."}, "license": "Open Government Licence \u2013 Ontario", "license_url": "https://www.ontario.ca/page/open-government-licence-ontario", "source": "Land Use Plan Area, Ontario Ministry of Natural Resources (LIO)", "source_url": "https://www.ontario.ca/page/land-use-planning-process-far-north", "note": "Context only. A community based land use plan says how Crown land is managed, not whether you may hunt: seasons and WMUs still decide that. The layer's real job is to stop the app reporting a parcel the atlas never reached as a parcel with no policy."}, "features": [{"type": "Feature", "properties": {"id": "on-lup-115041982", "name": "Cat Lake - Slate Falls Community Based Land Use Plan 'Niigaan Bimaadiziwin' - A Future Life", "plan_scope": "community", "hunting_allowed": null, "basis": "land_use_plan_community", "boundary_accuracy": "approximate", "year_approved": 2011, "record_url": "https://www.ontario.ca/document/cat-lake-and-slate-falls-first-nations-community-based-land-use-plan"}, "geometry": {"type": "MultiPolygon", "coordinates": [[[[-91.5836, 51.2654], [-91.5838, 51.2658], [-91.5774, 51.2655], [-91.5836, 51.2654]]], [[[-91.5978, 51.2622], [-91.5906, 51.2618], [-91.5866, 51.2648], [-91.5737, 51.262], [-91.5696, 51.2566], [-91.5653, 51.2561], [-91.5693, 51.2593], [-91.567, 51.2632], [-91.5709, 51.2643], [-91.5676, 51.2674], [-91.5727, 51.2657], [-91.5812, 51.2691], [-91.5618, 51.2706], [-91.5875, 51.2709], [-91.5949, 51.2737], [-91.5888, 51.276], [-91.5874, 51.281], [-91.573, 51.2813], [-91.5674, 51.2846], [-91.5709, 51.2885], [-91.5679, 51.2898], [-91.5697, 51.2919], [-91.5672, 51.2952], [-91.57, 51.2956], [-91.5665, 51.3002], [-91.5707, 51.3041], [-91.558, 51.313], [-91.5579, 51.3153], [-91.5623, 51.3153], [-91.5585, 51.3174], [-91.5594, 51.3199], [-91.5752, 51.3197], [-91.577, 51.3167], [-91.5694, 51.31], [-91.5797, 51.3088], [-91.5901, 51.3147], [-91.5993, 51.3132], [-91.5991, 51.3189], [-91.6094, 51.3212], [-91.6086, 51.3254], [-91.6205, 51.3236], [-91.6254, 51.3189], [-91.6238, 51.3097], [-91.6271, 51.3065], [-91.6203, 51.307], [-91.6146, 51.3033], [-91.6124, 51.298], [-91.6152, 51.2945], [-91.6071, 51.2931], [-91.6141, 51.2904], [-91.6252, 51.2941], [-91.6181, 51.2898], [-91.624, 51.2863], [-91.6339, 51.2884], [-91.6411, 51.2843], [-91.6516, 51.2857], [-91.6615, 51.2825], [-91.695, 51.2886], [-91.6874, 51.2948], [-91.7063, 51.2913], [-91.7218, 51.295], [-91.732, 51.3057], [-91.7359, 51.305], [-91.7346, 51.308], [-91.7536, 51.3036], [-91.7557, 51.3056], [-91.7493, 51.3075], [-91.7504, 51.3106], [-91.7609, 51.3111], [-91.7627, 51.3085], [-91.7675, 51.312], [-91.7709, 51.3108], [-91.7791, 51.3145], [-91.7768, 51.3176], [-91.7857, 51.3227], [-91.7761, 51.3265], [-91.7818, 51.334], [-91.7722, 51.3386], [-91.7878, 51.3423], [-91.7739, 51.3518], [-91.7845, 51.357], [-91.7763, 51.3681], [-91.7866, 51.3685], [-91.7767, 51.3722], [-91.775, 51.3802], [-91.7694, 51.3763], [-91.7656, 51.3806], [-91.7714, 51.3802], [-91.7639, 51.3842], [-91.7669, 51.3859], [-91.8065, 51.3656], [-91.8103, 51.369], [-91.8195, 51.3675], [-91.817, 51.3691], [-91.8218, 51.3715], [-91.8198, 51.3734], [-91.8283, 51.3759], [-91.8357, 51.3731], [-91.8264, 51.3705], [-91.8348, 51.3675], [-91.8474, 51.3673], [-91.8417, 51.3714], [-91.8456, 51.3732], [-91.8497, 51.368], [-91.8603, 51.3676], [-91.8621, 51.3657], [-91.8551, 51.3639], [-91.8732, 51.3587], [-91.8736, 51.3557], [-91.8579, 51.3561], [-91.8465, 51.3608], [-91.8435, 51.3572], [-91.8522, 51.3545], [-91.8421, 51.3501], [-91.8515, 51.3463], [-91.8519, 51.3435], [-91.848, 51.3419], [-91.8574, 51.3394], [-91.8547, 51.3388], [-91.8588, 51.3368], [-91.8566, 51.3354], [-91.8625, 51.3328], [-91.8593, 51.3299], [-91.8659, 51.327], [-91.8619, 51.3255], [-91.8696, 51.3225], [-91.8751, 51.3228], [-91.8745, 51.325], [-91.8884, 51.3232], [-91.888, 51.3206], [-91.8919, 51.3199], [-91.9096, 51.3216], [-91.9073, 51.3233], [-91.919, 51.3215], [-91.913, 51.3192], [-91.9299, 51.3131], [-91.9419, 51.3125], [-91.9374, 51.314], [-91.9412, 51.3157], [-91.9303, 51.3168], [-91.9243, 51.3211], [-91.9273, 51.3214], [-91.9229, 51.3241], [-91.9293, 51.3239], [-91.9245, 51.3272], [-91.9296, 51.3264], [-91.9303, 51.3292], [-91.9134, 51.3311], [-91.9145, 51.3335], [-91.9224, 51.3331], [-91.9214, 51.3364], [-91.9137, 51.3375], [-91.9129, 51.3341], [-91.9057, 51.3326], [-91.8936, 51.3407], [-91.88, 51.3435], [-91.8796, 51.3468], [-91.8829, 51.347], [-91.8806, 51.3535], [-91.8858, 51.3537], [-91.8795, 51.3579], [-91.8948, 51.3588], [-91.8898, 51.3601], [-91.89, 51.3629], [-91.8968, 51.363], [-91.8996, 51.3655], [-91.8967, 51.3677], [-91.8997, 51.3691], [-91.898, 51.372], [-91.8841, 51.373], [-91.8715, 51.3785], [-91.8755, 51.3792], [-91.8725, 51.3813], [-91.8876, 51.3816], [-91.8916, 51.3778], [-91.8869, 51.3767], [-91.8914, 51.3756], [-91.9179, 51.3777], [-91.9221, 51.3757], [-91.9168, 51.3738], [-91.9248, 51.3751], [-91.9244, 51.3781], [-91.9401, 51.3756], [-91.9412, 51.3781], [-91.9181, 51.3864], [-91.9281, 51.3871], [-91.9243, 51.3891], [-91.9251, 51.3933], [-91.9301, 51.3945], [-91.9279, 51.3975], [-91.9188, 51.3979], [-91.9184, 51.3954], [-91.9219, 51.3949], [-91.9191, 51.3893], [-91.9154, 51.3946], [-91.9086, 51.396], [-91.9059, 51.4012], [-91.9126, 51.3983], [-91.9154, 51.4006], [-91.9274, 51.3992], [-91.9307, 51.4021], [-91.9468, 51.3937], [-91.9523, 51.3941], [-91.9528, 51.3914], [-91.9622, 51.3941], [-91.9636, 51.3966], [-91.9599, 51.3949], [-91.9529, 51.3989], [-91.952, 51.4033], [-91.9394, 51.4075], [-91.9428, 51.4101], [-91.9298, 51.4132], [-91.9297, 51.4178], [-91.9265, 51.4191], [-91.9282, 51.4214], [-91.9407, 51.4223], [-91.9311, 51.429], [-91.932, 51.4327], [-91.9209, 51.4396], [-91.9265, 51.441], [-91.9193, 51.4412], [-91.9103, 51.4491], [-91.9153, 51.4531], [-92.5355, 51.4531], [-92.5176, 51.4812], [-92.4965, 51.4971], [-92.4757, 51.4998], [-92.4316, 51.496], [-92.4038, 51.4975], [-92.3914, 51.4996], [-92.3678, 51.5117], [-92.3887, 51.529], [-92.3912, 51.5375], [-92.3687, 51.5532], [-92.3704, 51.5696], [-92.3896, 51.5855], [-92.4287, 51.5977], [-92.4937, 51.6464], [-92.5136, 51.6485], [-92.5336, 51.6464], [-92.6367, 51.6251], [-92.6384, 51.6424], [-92.6444, 51.6563], [-92.6705, 51.6891], [-92.7465, 51.7125], [-92.7879, 51.705], [-92.8078, 51.706], [-92.8366, 51.7015], [-92.8487, 51.7042], [-92.8521, 51.7076], [-92.8509, 51.7198], [-92.8265, 51.7572], [-92.8168, 51.7803], [-92.8186, 51.7884], [-92.8372, 51.8121], [-92.8506, 51.8389], [-92.8609, 51.85], [-92.8743, 51.8583], [-92.9079, 51.8648], [-92.9126, 51.8685], [-92.9184, 51.8855], [-92.9335, 51.8965], [-92.9493, 51.8997], [-93.0123, 51.8718], [-93.0432, 51.8626], [-93.0623, 51.867], [-93.0733, 51.8746], [-93.0714, 51.8928], [-93.056, 51.9139], [-92.9884, 51.9824], [-92.984, 51.9937], [-92.992, 52.0326], [-92.9822, 52.0639], [-92.973, 52.0732], [-92.9379, 52.0793], [-92.9157, 52.066], [-92.8941, 52.0595], [-92.7583, 52.0585], [-92.6985, 52.0649], [-92.6722, 52.0781], [-92.6445, 52.0971], [-92.6058, 52.0965], [-92.5867, 52.0928], [-92.5276, 52.0946], [-92.5282, 52.161], [-92.5102, 52.1868], [-92.5016, 52.1924], [-92.4572, 52.2148], [-92.3336, 52.2482], [-92.2825, 52.2669], [-92.2356, 52.2763], [-92.1361, 52.3088], [-92.0997, 52.3134], [-92.0635, 52.3086], [-92.0498, 52.2992], [-92.0292, 52.2772], [-92.0283, 52.2573], [-92.0346, 52.2429], [-92.027, 52.2266], [-92.0094, 52.2188], [-91.959, 52.2058], [-91.8924, 52.1976], [-91.8578, 52.2005], [-91.8146, 52.1907], [-91.7969, 52.1901], [-91.7559, 52.1954], [-91.7257, 52.2035], [-91.7103, 52.2038], [-91.6749, 52.1989], [-91.6195, 52.1805], [-91.5999, 52.1775], [-91.574, 52.1836], [-91.5533, 52.1931], [-91.5267, 52.2202], [-91.4847, 52.2553], [-91.4544, 52.2751], [-91.3657, 52.3068], [-91.3116, 52.3201], [-91.2786, 52.3204], [-91.2121, 52.3146], [-91.1709, 52.3075], [-91.1412, 52.3074], [-91.1004, 52.3157], [-91.012, 52.3474], [-90.9482, 52.3568], [-90.9397, 52.357], [-90.9326, 52.3375], [-90.9275, 52.3047], [-90.9397, 52.2402], [-90.9522, 52.2174], [-90.9328, 52.2083], [-90.8852, 52.2029], [-90.8679, 52.198], [-90.8568, 52.1895], [-90.8481, 52.1745], [-90.8483, 52.143], [-90.8549, 52.1183], [-90.8501, 52.1062], [-90.83, 52.1041], [-90.795, 52.1161], [-90.759, 52.1235], [-90.7766, 52.1015], [-90.7881, 52.0797], [-90.7913, 52.0711], [-90.7904, 52.0485], [-90.778, 52.0265], [-90.7454, 52.0081], [-90.7411, 51.9985], [-90.7743, 51.9788], [-90.7836, 51.967], [-90.7869, 51.9542], [-90.7775, 51.9438], [-90.7751, 51.9366], [-90.7447, 51.9136], [-90.7249, 51.8813], [-90.6763, 51.9019], [-90.6555, 51.9156], [-90.6022, 51.9361], [-90.5629, 51.944], [-90.505, 51.9477], [-90.4211, 51.9729], [-90.3889, 51.985], [-90.3801, 51.9935], [-90.378, 51.9756], [-90.3816, 51.95], [-90.3928, 51.9064], [-90.3971, 51.9011], [-90.4393, 51.8775], [-90.4815, 51.8652], [-90.576, 51.8464], [-90.59, 51.6006], [-90.9874, 51.401], [-91.004, 51.0196], [-91.232, 51.0196], [-91.2222, 51.0389], [-91.226, 51.0389], [-91.2253, 51.0444], [-91.2543, 51.0462], [-91.2516, 51.0423], [-91.246, 51.0421], [-91.2669, 51.0374], [-91.2538, 51.0434], [-91.2657, 51.0457], [-91.2665, 51.0486], [-91.2581, 51.0455], [-91.2556, 51.0469], [-91.2586, 51.0479], [-91.2381, 51.0497], [-91.2471, 51.0544], [-91.2532, 51.0526], [-91.2693, 51.0562], [-91.2845, 51.0557], [-91.2889, 51.0522], [-91.2802, 51.0502], [-91.2941, 51.0479], [-91.2969, 51.044], [-91.3054, 51.0455], [-91.2995, 51.0457], [-91.2958, 51.0527], [-91.3059, 51.0547], [-91.3075, 51.0524], [-91.3206, 51.0564], [-91.3358, 51.0546], [-91.3345, 51.0497], [-91.3383, 51.0546], [-91.3765, 51.0403], [-91.3883, 51.0395], [-91.3847, 51.0338], [-91.3937, 51.0382], [-91.4218, 51.0334], [-91.4338, 51.0346], [-91.4335, 51.0401], [-91.4283, 51.04], [-91.4283, 51.0463], [-91.4207, 51.0518], [-91.423, 51.0541], [-91.4299, 51.0485], [-91.428, 51.0569], [-91.4186, 51.0629], [-91.4122, 51.057], [-91.4078, 51.0666], [-91.4031, 51.0693], [-91.3902, 51.0717], [-91.3876, 51.0692], [-91.3873, 51.0721], [-91.3927, 51.0732], [-91.3868, 51.0802], [-91.3896, 51.0826], [-91.3792, 51.0822], [-91.3847, 51.0801], [-91.3799, 51.0797], [-91.3721, 51.0823], [-91.3903, 51.0827], [-91.3931, 51.0865], [-91.3966, 51.0823], [-91.3924, 51.0798], [-91.3975, 51.0764], [-91.3959, 51.0794], [-91.4013, 51.0812], [-91.3982, 51.082], [-91.3958, 51.0898], [-91.4026, 51.0822], [-91.4027, 51.0891], [-91.4296, 51.0893], [-91.4336, 51.0847], [-91.4303, 51.0877], [-91.417, 51.0882], [-91.411, 51.0843], [-91.4114, 51.0817], [-91.4239, 51.0828], [-91.424, 51.0786], [-91.4195, 51.0808], [-91.4081, 51.0789], [-91.4284, 51.077], [-91.4328, 51.078], [-91.4306, 51.0821], [-91.4336, 51.0839], [-91.4368, 51.0791], [-91.4511, 51.0787], [-91.4485, 51.0831], [-91.4403, 51.0842], [-91.4525, 51.0886], [-91.4448, 51.0889], [-91.4469, 51.0925], [-91.4395, 51.0936], [-91.4583, 51.0991], [-91.4692, 51.0985], [-91.4668, 51.1007], [-91.471, 51.1025], [-91.4652, 51.1031], [-91.4705, 51.1043], [-91.4666, 51.1055], [-91.4956, 51.1055], [-91.4936, 51.1084], [-91.4963, 51.1104], [-91.4921, 51.1137], [-91.5128, 51.107], [-91.511, 51.1104], [-91.521, 51.11], [-91.5292, 51.1055], [-91.575, 51.107], [-91.5598, 51.1084], [-91.5429, 51.1152], [-91.5478, 51.1156], [-91.5433, 51.1167], [-91.5462, 51.1181], [-91.557, 51.1138], [-91.5675, 51.1159], [-91.5723, 51.1119], [-91.5718, 51.116], [-91.584, 51.1148], [-91.6029, 51.1107], [-91.6048, 51.1069], [-91.5998, 51.1073], [-91.6029, 51.1055], [-91.6136, 51.1055], [-91.6089, 51.1093], [-91.6169, 51.1131], [-91.6074, 51.1172], [-91.6264, 51.1193], [-91.6095, 51.1215], [-91.6091, 51.119], [-91.5846, 51.1189], [-91.5745, 51.1229], [-91.572, 51.1269], [-91.5721, 51.1228], [-91.5826, 51.1192], [-91.5638, 51.1201], [-91.5671, 51.1185], [-91.5603, 51.1168], [-91.553, 51.1192], [-91.5544, 51.1212], [-91.5393, 51.1236], [-91.5673, 51.1243], [-91.553, 51.1294], [-91.5585, 51.1311], [-91.552, 51.1324], [-91.5501, 51.1366], [-91.5586, 51.1384], [-91.5817, 51.1388], [-91.5836, 51.1349], [-91.5866, 51.1378], [-91.5984, 51.1385], [-91.594, 51.1329], [-91.6014, 51.1329], [-91.6024, 51.1305], [-91.6201, 51.1364], [-91.6101, 51.1368], [-91.6115, 51.1402], [-91.6088, 51.1423], [-91.5904, 51.1404], [-91.5905, 51.1443], [-91.6024, 51.151], [-91.6101, 51.1531], [-91.6157, 51.1499], [-91.62, 51.1524], [-91.5964, 51.1591], [-91.6053, 51.1587], [-91.6003, 51.1608], [-91.608, 51.1617], [-91.6053, 51.1635], [-91.6068, 51.1662], [-91.6113, 51.1674], [-91.598, 51.1678], [-91.5921, 51.1734], [-91.5984, 51.1744], [-91.6014, 51.1799], [-91.607, 51.1754], [-91.6053, 51.1834], [-91.6096, 51.181], [-91.6068, 51.1855], [-91.6137, 51.1891], [-91.6264, 51.1867], [-91.6254, 51.1806], [-91.6327, 51.1801], [-91.6149, 51.1789], [-91.623, 51.1788], [-91.6197, 51.1764], [-91.6247, 51.1746], [-91.644, 51.1801], [-91.6397, 51.1824], [-91.6476, 51.1814], [-91.6284, 51.1865], [-91.6343, 51.1867], [-91.6284, 51.1887], [-91.6334, 51.1924], [-91.6297, 51.1934], [-91.6387, 51.1949], [-91.6394, 51.1983], [-91.6326, 51.1984], [-91.634, 51.2033], [-91.6409, 51.2028], [-91.6406, 51.1987], [-91.6812, 51.2032], [-91.687, 51.1977], [-91.6833, 51.2067], [-91.6783, 51.2043], [-91.6676, 51.2093], [-91.6673, 51.2198], [-91.6761, 51.2175], [-91.6731, 51.2205], [-91.6778, 51.2221], [-91.6712, 51.2269], [-91.6429, 51.2342], [-91.6386, 51.2391], [-91.6168, 51.2407], [-91.6158, 51.2427], [-91.6222, 51.2426], [-91.6191, 51.245], [-91.6261, 51.2435], [-91.6111, 51.2509], [-91.6224, 51.252], [-91.6226, 51.2551], [-91.6155, 51.2576], [-91.6156, 51.2602], [-91.6004, 51.2613], [-91.6074, 51.2638], [-91.6025, 51.2655], [-91.6087, 51.2664], [-91.6018, 51.2674], [-91.6047, 51.2686], [-91.6034, 51.2708], [-91.5856, 51.27], [-91.5838, 51.2658], [-91.5978, 51.2622]], [[-91.4044, 51.0661], [-91.4018, 51.0664], [-91.4042, 51.0665], [-91.4044, 51.0661]]]]}}, {"type": "Feature", "properties": {"id": "on-lup-115041983", "name": "Little Grand Rapids Community Based Land Use Plan", "plan_scope": "community", "hunting_allowed": null, "basis": "land_use_plan_community", "boundary_accuracy": "approximate", "year_approved": 2011, "record_url": "https://www.ontario.ca/document/little-grand-rapids-community-based-land-use-plan"}, "geometry": {"type": "Polygon", "coordinates": [[[-94.9342, 52.1576], [-94.9418, 52.1654], [-94.9563, 52.1683], [-95.0031, 52.1566], [-95.0761, 52.1591], [-95.0854, 52.1507], [-95.0788, 52.1343], [-95.081, 52.0967], [-95.0918, 52.0961], [-95.1127, 52.0832], [-95.1536, 52.0917], [-95.1535, 51.407], [-95.0545, 51.4802], [-94.972, 51.4802], [-94.8758, 51.4408], [-94.8571, 51.456], [-94.8592, 51.4771], [-94.8436, 51.4844], [-94.8355, 51.4941], [-94.8255, 51.4982], [-94.8142, 51.5084], [-94.7888, 51.5189], [-94.788, 51.5248], [-94.7789, 51.5333], [-94.7778, 51.5584], [-94.7259, 51.5836], [-94.7172, 51.605], [-94.7166, 51.6189], [-94.6889, 51.6492], [-94.681, 51.6681], [-94.6843, 51.6849], [-94.6669, 51.7068], [-94.6717, 51.7129], [-94.7, 51.7212], [-94.7578, 51.7238], [-94.7761, 51.7347], [-94.7774, 51.7395], [-94.7743, 51.7461], [-94.7422, 51.7722], [-94.751, 51.7916], [-94.7511, 51.7994], [-94.733, 51.826], [-94.7296, 51.8384], [-94.7167, 51.8471], [-94.6918, 51.8571], [-94.6879, 51.8662], [-94.6932, 51.8745], [-94.7046, 51.8654], [-94.7264, 51.858], [-94.7449, 51.8559], [-94.7731, 51.8618], [-94.8021, 51.8612], [-94.8122, 51.8636], [-94.8285, 51.8734], [-94.8299, 51.8859], [-94.8138, 51.8998], [-94.8121, 51.9199], [-94.8391, 51.95], [-94.8836, 51.9761], [-94.8863, 51.9812], [-94.8707, 51.9965], [-94.8615, 52.0259], [-94.8544, 52.0387], [-94.8317, 52.0644], [-94.8522, 52.078], [-94.8544, 52.0829], [-94.8463, 52.0927], [-94.8471, 52.0955], [-94.8726, 52.112], [-94.9574, 52.1117], [-94.9647, 52.1163], [-94.9617, 52.1286], [-94.9342, 52.1576]]]}}, {"type": "Feature", "properties": {"id": "on-lup-115041985", "name": "Keeping the Land A Land Use Strategy for the Whitefeather Forest and Adjacent Areas", "plan_scope": "community", "hunting_allowed": null, "basis": "land_use_plan_community", "boundary_accuracy": "approximate", "year_approved": 2006, "record_url": "http://www.whitefeatherforest.ca/wp-content/uploads/2008/06/land-use-strategy.pdf"}, "geometry": {"type": "MultiPolygon", "coordinates": [[[[-93.8525, 52.3922], [-93.863, 52.3982], [-93.872, 52.3987], [-93.9041, 52.3748], [-93.9186, 52.3685], [-93.9569, 52.3715], [-93.9558, 52.3606], [-93.931, 52.3476], [-93.9268, 52.3389], [-93.902, 52.3402], [-93.8962, 52.3358], [-93.9009, 52.3311], [-93.9343, 52.3211], [-93.9599, 52.2948], [-93.996, 52.2736], [-94.0389, 52.2274], [-94.0503, 52.2056], [-94.0439, 52.1873], [-94.0447, 52.1786], [-94.0594, 52.1502], [-94.0505, 52.118], [-94.0626, 52.1018], [-94.0761, 52.0945], [-94.177, 52.0627], [-94.2214, 52.0533], [-94.2201, 52.0684], [-94.2547, 52.0739], [-94.2866, 52.0956], [-94.3097, 52.0979], [-94.3487, 52.1203], [-94.3531, 52.1295], [-94.3538, 52.1574], [-94.376, 52.16], [-94.3954, 52.1691], [-94.4059, 52.1699], [-94.4371, 52.1623], [-94.4761, 52.1472], [-94.5021, 52.1425], [-94.5403, 52.1449], [-94.5615, 52.1546], [-94.5666, 52.1518], [-94.5715, 52.1381], [-94.5697, 52.1247], [-94.5624, 52.1129], [-94.5841, 52.0883], [-94.5922, 52.0578], [-94.5885, 52.0515], [-94.5406, 52.0326], [-94.5418, 52.0226], [-94.5736, 52.0007], [-94.5682, 51.9882], [-94.5285, 51.9443], [-94.5179, 51.9206], [-94.5476, 51.9072], [-94.5676, 51.8819], [-94.5842, 51.877], [-94.6484, 51.875], [-94.6871, 51.8812], [-94.6932, 51.8745], [-94.6879, 51.8662], [-94.6894, 51.8593], [-94.7296, 51.8384], [-94.733, 51.826], [-94.7511, 51.7994], [-94.751, 51.7916], [-94.7422, 51.7722], [-94.7743, 51.7461], [-94.7776, 51.7375], [-94.7721, 51.7307], [-94.7578, 51.7238], [-94.7, 51.7212], [-94.669, 51.7112], [-94.668, 51.7042], [-94.6843, 51.6849], [-94.6805, 51.6738], [-94.6819, 51.6649], [-94.6889, 51.6492], [-94.7166, 51.6189], [-94.7172, 51.605], [-94.7259, 51.5836], [-94.7778, 51.5584], [-94.7789, 51.5333], [-94.788, 51.5248], [-94.7888, 51.5189], [-94.8142, 51.5084], [-94.8255, 51.4982], [-94.8355, 51.4941], [-94.8436, 51.4844], [-94.8592, 51.4771], [-94.8571, 51.456], [-94.8759, 51.4407], [-94.7741, 51.3992], [-94.7699, 51.4035], [-94.7712, 51.4094], [-94.76, 51.4125], [-94.7624, 51.4177], [-94.6776, 51.4168], [-94.5515, 51.4996], [-94.3947, 51.4816], [-94.394, 51.4545], [-94.2516, 51.4022], [-94.2513, 51.3932], [-94.2154, 51.3932], [-94.2152, 51.3416], [-94.229, 51.3383], [-94.2529, 51.2498], [-94.2644, 51.2496], [-94.295, 51.2292], [-94.3882, 51.2132], [-94.3942, 51.1886], [-94.0054, 51.1917], [-94.0073, 51.3634], [-93.7726, 51.3661], [-93.7701, 51.3713], [-93.7772, 51.3724], [-93.7709, 51.378], [-93.7736, 51.3805], [-93.7614, 51.3828], [-93.7561, 51.3885], [-93.7427, 51.3902], [-93.74, 51.3923], [-93.7444, 51.3954], [-93.7363, 51.4001], [-93.7519, 51.4077], [-93.7445, 51.4198], [-93.7421, 51.4193], [-93.7418, 51.4248], [-93.7441, 51.4253], [-93.7406, 51.4281], [-93.7441, 51.4298], [-93.7303, 51.4294], [-93.7178, 51.4339], [-93.7094, 51.4431], [-93.7131, 51.4488], [-93.7184, 51.4502], [-93.7175, 51.4563], [-93.7313, 51.4599], [-93.7271, 51.4635], [-93.7191, 51.4627], [-93.7225, 51.4655], [-93.7194, 51.4671], [-93.724, 51.4695], [-93.7211, 51.4726], [-93.7128, 51.4704], [-93.7114, 51.4663], [-93.7019, 51.4609], [-93.6916, 51.4601], [-93.6941, 51.4534], [-93.6999, 51.4499], [-93.6939, 51.4416], [-93.6828, 51.4454], [-93.6798, 51.4431], [-93.6688, 51.4443], [-93.6585, 51.4391], [-93.6599, 51.436], [-93.654, 51.4349], [-93.6444, 51.444], [-93.6348, 51.4449], [-93.6278, 51.4344], [-93.6177, 51.4323], [-93.62, 51.4291], [-93.6292, 51.4292], [-93.6295, 51.4245], [-93.6267, 51.4234], [-93.6303, 51.4191], [-93.6237, 51.4174], [-93.6123, 51.4203], [-93.6208, 51.4203], [-93.6119, 51.4279], [-93.6007, 51.4295], [-93.6017, 51.4362], [-93.6076, 51.4393], [-93.5969, 51.4391], [-93.5975, 51.4425], [-93.5868, 51.4438], [-93.5844, 51.446], [-93.5885, 51.4506], [-93.5774, 51.45], [-93.5695, 51.4535], [-93.5717, 51.4567], [-93.5377, 51.4634], [-93.5334, 51.4667], [-93.5175, 51.4655], [-93.5149, 51.4671], [-93.5178, 51.4704], [-93.5028, 51.4727], [-93.5025, 51.477], [-93.4942, 51.4798], [-93.4942, 51.4837], [-93.4755, 51.4879], [-93.4624, 51.4863], [-93.4622, 51.4889], [-93.4672, 51.4899], [-93.4595, 51.4935], [-93.4594, 51.4905], [-93.4512, 51.4918], [-93.4548, 51.4874], [-93.4433, 51.4842], [-93.4422, 51.476], [-93.4459, 51.4727], [-93.4353, 51.472], [-93.4471, 51.4702], [-93.4493, 51.4655], [-93.4595, 51.4625], [-93.4761, 51.4628], [-93.4739, 51.4553], [-93.4657, 51.4546], [-93.4622, 51.4567], [-93.4625, 51.4606], [-93.4608, 51.4562], [-93.4525, 51.4564], [-93.4351, 51.4674], [-93.4368, 51.4696], [-93.428, 51.4694], [-93.4238, 51.4759], [-93.4095, 51.4746], [-93.4043, 51.4842], [-93.4002, 51.4765], [-93.3943, 51.476], [-93.3917, 51.4797], [-93.375, 51.4754], [-93.3681, 51.4768], [-93.3612, 51.4844], [-93.3492, 51.4873], [-93.3504, 51.4792], [-93.3829, 51.4655], [-93.3815, 51.4568], [-93.3838, 51.4546], [-93.3705, 51.4589], [-93.3735, 51.4645], [-93.3689, 51.4692], [-93.3517, 51.4776], [-93.3419, 51.4777], [-93.3401, 51.4819], [-93.3348, 51.4768], [-93.3394, 51.469], [-93.3334, 51.4663], [-93.3346, 51.4589], [-93.3277, 51.4574], [-93.3246, 51.4531], [-92.5355, 51.4531], [-92.5176, 51.4812], [-92.4965, 51.4971], [-92.4757, 51.4998], [-92.4316, 51.496], [-92.4038, 51.4975], [-92.3914, 51.4996], [-92.3674, 51.512], [-92.3857, 51.5257], [-92.3912, 51.5375], [-92.3679, 51.5546], [-92.3712, 51.5705], [-92.3896, 51.5855], [-92.4287, 51.5977], [-92.492, 51.6458], [-92.5136, 51.6485], [-92.5336, 51.6464], [-92.6367, 51.6251], [-92.6384, 51.6424], [-92.6444, 51.6563], [-92.6705, 51.6891], [-92.7388, 51.7118], [-92.8296, 51.7017], [-92.8505, 51.7054], [-92.8509, 51.7198], [-92.8265, 51.7572], [-92.8168, 51.7803], [-92.8186, 51.7884], [-92.8372, 51.8121], [-92.8506, 51.8389], [-92.8609, 51.85], [-92.8743, 51.8583], [-92.9079, 51.8648], [-92.9126, 51.8685], [-92.9184, 51.8855], [-92.9335, 51.8965], [-92.9493, 51.8997], [-93.0123, 51.8718], [-93.0432, 51.8626], [-93.0623, 51.867], [-93.0733, 51.8746], [-93.0734, 51.8869], [-93.0669, 51.9], [-93.0297, 51.9427], [-92.9971, 51.9708], [-92.9884, 51.9824], [-92.984, 51.9937], [-92.992, 52.0326], [-92.9822, 52.0639], [-92.973, 52.0732], [-92.9651, 52.0761], [-92.9303, 52.0817], [-92.9191, 52.0953], [-92.9136, 52.1117], [-92.9179, 52.118], [-92.9316, 52.1268], [-92.9294, 52.1525], [-92.9373, 52.1727], [-92.9339, 52.1803], [-92.9056, 52.194], [-92.9188, 52.2149], [-93.0135, 52.2376], [-93.0671, 52.237], [-93.1286, 52.2321], [-93.1784, 52.22], [-93.2335, 52.2138], [-93.2913, 52.201], [-93.2902, 52.2359], [-93.2937, 52.2505], [-93.3066, 52.264], [-93.3198, 52.2692], [-93.3361, 52.2648], [-93.3539, 52.2521], [-93.3989, 52.2292], [-93.4189, 52.2302], [-93.4516, 52.2446], [-93.4806, 52.2486], [-93.5219, 52.2364], [-93.55, 52.2343], [-93.5658, 52.2582], [-93.5796, 52.2649], [-93.6432, 52.2688], [-93.6589, 52.274], [-93.6714, 52.2929], [-93.6802, 52.3001], [-93.7053, 52.3511], [-93.7235, 52.3651], [-93.7469, 52.3701], [-93.7894, 52.3631], [-93.8279, 52.3891], [-93.8525, 52.3922]]], [[[-94.4581, 52.4602], [-94.49, 52.4687], [-94.5456, 52.4739], [-94.5956, 52.4621], [-94.6007, 52.4515], [-94.6227, 52.4486], [-94.6378, 52.4315], [-94.6398, 52.4208], [-94.6373, 52.4101], [-94.6443, 52.3987], [-94.6438, 52.3941], [-94.6316, 52.3714], [-94.6161, 52.3628], [-94.5647, 52.3584], [-94.5471, 52.3519], [-94.5335, 52.3385], [-94.5285, 52.3103], [-94.5029, 52.2954], [-94.42, 52.2591], [-94.3793, 52.2507], [-94.3356, 52.2488], [-94.3292, 52.2452], [-94.3257, 52.2356], [-94.3202, 52.2348], [-94.302, 52.2471], [-94.2897, 52.2644], [-94.2887, 52.2829], [-94.308, 52.309], [-94.3145, 52.3305], [-94.3041, 52.3455], [-94.2862, 52.3489], [-94.2838, 52.3527], [-94.2901, 52.3597], [-94.2915, 52.3671], [-94.2768, 52.4045], [-94.261, 52.4131], [-94.2141, 52.4139], [-94.204, 52.418], [-94.2392, 52.4297], [-94.2983, 52.4414], [-94.3115, 52.4507], [-94.3317, 52.4573], [-94.3656, 52.4542], [-94.4207, 52.4575], [-94.4392, 52.4613], [-94.4581, 52.4602]]]]}}, {"type": "Feature", "properties": {"id": "on-lup-115041984", "name": "Pauingassi Community Based Land Use Plan 'The Land of Fair Wind'", "plan_scope": "community", "hunting_allowed": null, "basis": "land_use_plan_community", "boundary_accuracy": "approximate", "year_approved": 2011, "record_url": "https://www.ontario.ca/document/pauingassi-first-nation-community-based-land-use-plan"}, "geometry": {"type": "Polygon", "coordinates": [[[-95.0777, 52.7552], [-95.1537, 52.7541], [-95.1536, 52.0917], [-95.1337, 52.0894], [-95.117, 52.0831], [-95.1092, 52.0845], [-95.0918, 52.0961], [-95.0806, 52.0973], [-95.0815, 52.1202], [-95.0788, 52.1343], [-95.0854, 52.1507], [-95.0807, 52.157], [-95.0665, 52.1599], [-95.0031, 52.1566], [-94.9811, 52.16], [-94.9712, 52.1646], [-94.9742, 52.1886], [-94.9603, 52.2089], [-94.955, 52.2254], [-94.9448, 52.2363], [-94.9335, 52.2427], [-94.9325, 52.2482], [-94.9369, 52.2589], [-94.9673, 52.2849], [-94.9632, 52.2982], [-94.9678, 52.3089], [-94.9625, 52.3121], [-94.93, 52.3012], [-94.9192, 52.3034], [-94.9196, 52.3085], [-94.9332, 52.3228], [-94.9288, 52.3305], [-94.9147, 52.3377], [-94.9144, 52.3472], [-94.9103, 52.3537], [-94.886, 52.3638], [-94.8764, 52.3728], [-94.8665, 52.3766], [-94.836, 52.3789], [-94.7962, 52.3768], [-94.778, 52.3866], [-94.7647, 52.3897], [-94.7424, 52.3828], [-94.7142, 52.3646], [-94.6971, 52.3585], [-94.6906, 52.3614], [-94.6868, 52.3757], [-94.6787, 52.383], [-94.6724, 52.3838], [-94.6469, 52.3743], [-94.6335, 52.3743], [-94.6446, 52.3964], [-94.6373, 52.4101], [-94.6398, 52.4208], [-94.6378, 52.4315], [-94.6227, 52.4486], [-94.6007, 52.4515], [-94.5936, 52.4622], [-94.6261, 52.4799], [-94.654, 52.4812], [-94.6777, 52.4892], [-94.7291, 52.4963], [-94.7685, 52.5099], [-94.7832, 52.5246], [-94.8291, 52.5974], [-94.85, 52.612], [-94.8442, 52.6274], [-94.8525, 52.637], [-94.8567, 52.6505], [-94.9301, 52.6841], [-94.9682, 52.6848], [-94.9864, 52.6896], [-94.9989, 52.7095], [-95.0686, 52.7424], [-95.0777, 52.7552]]]}}, {"type": "Feature", "properties": {"id": "on-lup-70174057", "name": "Far North of Ontario", "plan_scope": "far_north", "hunting_allowed": null, "basis": "land_use_plan_far_north", "boundary_accuracy": "approximate", "record_url": "https://www.ontario.ca/page/land-use-planning-process-far-north"}, "geometry": {"type": "MultiPolygon", "coordinates": [[[[-91.5836, 51.2654], [-91.5838, 51.2658], [-91.5774, 51.2654], [-91.5836, 51.2654]]], [[[-87.8074, 51.349], [-87.8159, 51.3504], [-87.8069, 51.3493], [-87.8074, 51.349]]], [[[-91.5906, 51.2618], [-91.5866, 51.2648], [-91.5737, 51.262], [-91.5696, 51.2566], [-91.5653, 51.2561], [-91.5693, 51.2593], [-91.567, 51.2632], [-91.5709, 51.2643], [-91.5676, 51.2674], [-91.5727, 51.2657], [-91.5812, 51.2691], [-91.5618, 51.2706], [-91.5875, 51.2709], [-91.5949, 51.2737], [-91.5888, 51.276], [-91.5874, 51.281], [-91.573, 51.2813], [-91.5674, 51.2846], [-91.5709, 51.2885], [-91.5679, 51.2898], [-91.5697, 51.2919], [-91.5672, 51.2952], [-91.57, 51.2956], [-91.5665, 51.3002], [-91.5707, 51.3041], [-91.558, 51.313], [-91.5579, 51.3153], [-91.5623, 51.3153], [-91.5585, 51.3174], [-91.5598, 51.3204], [-91.5752, 51.3197], [-91.577, 51.3167], [-91.5694, 51.31], [-91.5797, 51.3088], [-91.5901, 51.3147], [-91.5993, 51.3132], [-91.5991, 51.3189], [-91.6094, 51.3212], [-91.6086, 51.3254], [-91.6205, 51.3236], [-91.6254, 51.3189], [-91.6238, 51.3097], [-91.6271, 51.3066], [-91.6203, 51.3069], [-91.6146, 51.3033], [-91.6124, 51.298], [-91.6152, 51.2945], [-91.6071, 51.293], [-91.6141, 51.2904], [-91.6252, 51.2941], [-91.6181, 51.2898], [-91.624, 51.2863], [-91.6339, 51.2884], [-91.6411, 51.2843], [-91.6516, 51.2857], [-91.6615, 51.2825], [-91.695, 51.2886], [-91.6874, 51.2948], [-91.7063, 51.2913], [-91.7218, 51.295], [-91.732, 51.3057], [-91.7359, 51.305], [-91.7346, 51.308], [-91.7536, 51.3036], [-91.7557, 51.3056], [-91.7493, 51.3075], [-91.7504, 51.3106], [-91.7609, 51.3111], [-91.7627, 51.3085], [-91.7675, 51.312], [-91.7709, 51.3108], [-91.7791, 51.3145], [-91.7768, 51.3176], [-91.7857, 51.3227], [-91.7761, 51.3265], [-91.7818, 51.334], [-91.7722, 51.3386], [-91.7878, 51.3423], [-91.7739, 51.3518], [-91.7845, 51.357], [-91.7763, 51.3681], [-91.7866, 51.3685], [-91.7767, 51.3722], [-91.775, 51.3802], [-91.7694, 51.3763], [-91.7656, 51.3806], [-91.7714, 51.3802], [-91.7639, 51.3842], [-91.7669, 51.3859], [-91.8065, 51.3656], [-91.8103, 51.369], [-91.8195, 51.3674], [-91.817, 51.3691], [-91.8218, 51.3715], [-91.8198, 51.3734], [-91.8283, 51.3759], [-91.8357, 51.3731], [-91.8264, 51.3705], [-91.8348, 51.3675], [-91.8474, 51.3673], [-91.8417, 51.3714], [-91.8457, 51.3732], [-91.8497, 51.368], [-91.8603, 51.3676], [-91.8621, 51.3657], [-91.8551, 51.3639], [-91.8732, 51.3587], [-91.8736, 51.3557], [-91.8579, 51.3561], [-91.8465, 51.3608], [-91.8435, 51.3572], [-91.8522, 51.3545], [-91.8421, 51.3501], [-91.8515, 51.3463], [-91.8519, 51.3435], [-91.848, 51.3419], [-91.8574, 51.3394], [-91.8547, 51.3388], [-91.8588, 51.3368], [-91.8566, 51.3354], [-91.8625, 51.3328], [-91.8593, 51.3299], [-91.8659, 51.327], [-91.8619, 51.3255], [-91.8696, 51.3225], [-91.8751, 51.3228], [-91.8745, 51.325], [-91.8884, 51.3232], [-91.888, 51.3206], [-91.8919, 51.3199], [-91.9096, 51.3216], [-91.9073, 51.3233], [-91.919, 51.3215], [-91.913, 51.3192], [-91.9299, 51.3131], [-91.9419, 51.3125], [-91.9374, 51.314], [-91.9412, 51.3157], [-91.9303, 51.3168], [-91.9243, 51.3211], [-91.9273, 51.3214], [-91.9229, 51.3241], [-91.9293, 51.3239], [-91.9245, 51.3272], [-91.9296, 51.3264], [-91.9303, 51.3292], [-91.9134, 51.3311], [-91.9145, 51.3335], [-91.9224, 51.3331], [-91.9214, 51.3364], [-91.9137, 51.3375], [-91.9129, 51.3341], [-91.9057, 51.3326], [-91.8936, 51.3407], [-91.88, 51.3435], [-91.8796, 51.3468], [-91.8829, 51.347], [-91.8806, 51.3535], [-91.8858, 51.3537], [-91.8795, 51.3579], [-91.8948, 51.3588], [-91.8898, 51.3601], [-91.89, 51.3629], [-91.8968, 51.363], [-91.8996, 51.3655], [-91.8967, 51.3677], [-91.8997, 51.3691], [-91.898, 51.372], [-91.8841, 51.373], [-91.8715, 51.3785], [-91.8755, 51.3792], [-91.8725, 51.3813], [-91.8876, 51.3816], [-91.8916, 51.3778], [-91.8869, 51.3767], [-91.8914, 51.3756], [-91.9179, 51.3777], [-91.9221, 51.3757], [-91.9168, 51.3738], [-91.9248, 51.3751], [-91.9244, 51.3781], [-91.9401, 51.3756], [-91.9412, 51.3781], [-91.9181, 51.3864], [-91.9281, 51.3871], [-91.9243, 51.3891], [-91.9251, 51.3933], [-91.9301, 51.3945], [-91.9279, 51.3975], [-91.9188, 51.3979], [-91.9184, 51.3953], [-91.9219, 51.3949], [-91.9191, 51.3893], [-91.9154, 51.3946], [-91.9086, 51.396], [-91.9059, 51.4012], [-91.9126, 51.3983], [-91.9154, 51.4006], [-91.9274, 51.3992], [-91.9307, 51.4021], [-91.9468, 51.3937], [-91.9523, 51.3941], [-91.9528, 51.3914], [-91.9622, 51.3941], [-91.9636, 51.3966], [-91.9599, 51.3949], [-91.9529, 51.3989], [-91.952, 51.4033], [-91.9394, 51.4075], [-91.9428, 51.4101], [-91.9298, 51.4132], [-91.9297, 51.4178], [-91.9265, 51.4191], [-91.9282, 51.4214], [-91.9407, 51.4223], [-91.9311, 51.429], [-91.932, 51.4327], [-91.9209, 51.4396], [-91.9265, 51.441], [-91.9193, 51.4412], [-91.9103, 51.4491], [-91.9153, 51.4531], [-93.3246, 51.4531], [-93.3277, 51.4574], [-93.3347, 51.459], [-93.3334, 51.4663], [-93.3394, 51.4691], [-93.3348, 51.4768], [-93.3401, 51.4819], [-93.3419, 51.4777], [-93.3517, 51.4776], [-93.3689, 51.4692], [-93.3735, 51.4645], [-93.3705, 51.4589], [-93.3838, 51.4546], [-93.3815, 51.4568], [-93.3829, 51.4655], [-93.3504, 51.4792], [-93.3492, 51.4873], [-93.3612, 51.4844], [-93.3681, 51.4768], [-93.3749, 51.4754], [-93.3917, 51.4797], [-93.3943, 51.476], [-93.4002, 51.4765], [-93.4043, 51.4842], [-93.4095, 51.4746], [-93.4238, 51.4759], [-93.428, 51.4694], [-93.4368, 51.4696], [-93.4351, 51.4674], [-93.4525, 51.4564], [-93.4608, 51.4562], [-93.4625, 51.4606], [-93.4656, 51.4546], [-93.4739, 51.4553], [-93.4761, 51.4628], [-93.4595, 51.4625], [-93.4493, 51.4655], [-93.4471, 51.4702], [-93.4353, 51.472], [-93.4459, 51.4727], [-93.4422, 51.476], [-93.4433, 51.4842], [-93.4548, 51.4874], [-93.4512, 51.4918], [-93.4594, 51.4905], [-93.4595, 51.4936], [-93.4672, 51.4899], [-93.4622, 51.4889], [-93.4624, 51.4863], [-93.4754, 51.4879], [-93.4942, 51.4837], [-93.4942, 51.4798], [-93.5025, 51.477], [-93.5028, 51.4727], [-93.5178, 51.4704], [-93.5149, 51.4671], [-93.5175, 51.4655], [-93.5334, 51.4667], [-93.5377, 51.4634], [-93.5717, 51.4567], [-93.5695, 51.4535], [-93.5771, 51.4501], [-93.5886, 51.4505], [-93.5844, 51.446], [-93.5868, 51.4438], [-93.5975, 51.4425], [-93.5969, 51.4391], [-93.6076, 51.4393], [-93.5984, 51.4303], [-93.5953, 51.4354], [-93.5811, 51.4369], [-93.5773, 51.4406], [-93.5531, 51.4325], [-93.5676, 51.4365], [-93.5743, 51.4299], [-93.5788, 51.4331], [-93.5805, 51.4296], [-93.5873, 51.4279], [-93.6007, 51.4307], [-93.6032, 51.428], [-93.6119, 51.4279], [-93.6208, 51.4203], [-93.6123, 51.4203], [-93.6249, 51.4174], [-93.6306, 51.4199], [-93.6267, 51.4234], [-93.6295, 51.4245], [-93.6292, 51.4292], [-93.62, 51.4291], [-93.6177, 51.4323], [-93.6278, 51.4344], [-93.6348, 51.4449], [-93.6444, 51.444], [-93.654, 51.4349], [-93.6599, 51.436], [-93.6585, 51.4391], [-93.6688, 51.4443], [-93.6798, 51.4431], [-93.6828, 51.4454], [-93.6939, 51.4416], [-93.6999, 51.4499], [-93.6941, 51.4534], [-93.6916, 51.4601], [-93.7019, 51.4609], [-93.7114, 51.4663], [-93.7128, 51.4704], [-93.7211, 51.4726], [-93.724, 51.4695], [-93.7194, 51.4671], [-93.7225, 51.4655], [-93.7191, 51.4627], [-93.7271, 51.4635], [-93.7313, 51.4599], [-93.7175, 51.4563], [-93.7184, 51.4502], [-93.7131, 51.4488], [-93.7094, 51.4431], [-93.7178, 51.4339], [-93.7303, 51.4294], [-93.7441, 51.4298], [-93.7406, 51.4282], [-93.7441, 51.4253], [-93.7418, 51.4248], [-93.7421, 51.4193], [-93.7445, 51.4198], [-93.7519, 51.4077], [-93.7363, 51.4001], [-93.7444, 51.3954], [-93.74, 51.3923], [-93.7427, 51.3902], [-93.7561, 51.3885], [-93.7614, 51.3828], [-93.7736, 51.3805], [-93.7709, 51.378], [-93.7772, 51.3724], [-93.7701, 51.3713], [-93.7726, 51.3661], [-94.0071, 51.3634], [-94.0053, 51.1917], [-94.3942, 51.1886], [-94.3882, 51.2132], [-94.295, 51.2292], [-94.2644, 51.2496], [-94.2529, 51.2498], [-94.229, 51.3383], [-94.2152, 51.3416], [-94.2154, 51.3932], [-94.2513, 51.3932], [-94.2516, 51.4022], [-94.394, 51.4545], [-94.3948, 51.4815], [-94.5515, 51.4996], [-94.6776, 51.4168], [-94.7622, 51.4177], [-94.76, 51.4124], [-94.7704, 51.4096], [-94.7721, 51.4056], [-94.7697, 51.4031], [-94.7741, 51.3988], [-94.972, 51.4802], [-95.0545, 51.4802], [-95.1537, 51.4068], [-95.1537, 52.8416], [-94.4085, 53.2947], [-93.6564, 53.7379], [-93.1943, 54.0765], [-92.7304, 54.4093], [-92.2697, 54.7327], [-91.8044, 55.0525], [-91.3295, 55.3718], [-90.8599, 55.6807], [-90.3824, 55.9882], [-89.9019, 56.2908], [-89.4389, 56.5763], [-88.9908, 56.8466], [-88.9406, 56.8382], [-88.9127, 56.8395], [-88.9045, 56.8517], [-88.8925, 56.8579], [-88.8804, 56.8591], [-88.862, 56.8458], [-88.8608, 56.8276], [-88.8473, 56.8292], [-88.855, 56.8357], [-88.8533, 56.8377], [-88.821, 56.8371], [-88.8114, 56.8249], [-88.8125, 56.8172], [-88.8398, 56.8097], [-88.8328, 56.7989], [-88.8243, 56.7956], [-88.8216, 56.7898], [-88.7917, 56.7754], [-88.7457, 56.7597], [-88.6976, 56.7358], [-88.6862, 56.7249], [-88.6762, 56.7063], [-88.6468, 56.6888], [-88.5642, 56.6618], [-88.5267, 56.6537], [-88.5206, 56.6571], [-88.4983, 56.6521], [-88.4463, 56.6091], [-88.3985, 56.5907], [-88.3585, 56.5676], [-88.2785, 56.5383], [-88.2604, 56.5363], [-88.1871, 56.5124], [-88.1454, 56.5088], [-88.0679, 56.4927], [-88.0258, 56.4808], [-88.0157, 56.474], [-87.987, 56.4693], [-87.9726, 56.4624], [-87.957, 56.4454], [-87.9483, 56.4129], [-87.9252, 56.3896], [-87.8778, 56.364], [-87.8431, 56.3253], [-87.8201, 56.3148], [-87.8026, 56.2981], [-87.7899, 56.282], [-87.7799, 56.2757], [-87.7781, 56.2685], [-87.7254, 56.2311], [-87.7202, 56.2242], [-87.7238, 56.2186], [-87.7141, 56.2091], [-87.7107, 56.1979], [-87.6942, 56.1733], [-87.6649, 56.141], [-87.6399, 56.1188], [-87.6298, 56.0959], [-87.5906, 56.0812], [-87.5687, 56.0684], [-87.507, 56.0543], [-87.4804, 56.0422], [-87.4681, 56.0344], [-87.4444, 56.0053], [-87.431, 55.999], [-87.3897, 55.9909], [-87.3586, 55.9739], [-87.316, 55.9562], [-87.2386, 55.9399], [-87.1179, 55.9264], [-87.0339, 55.9239], [-87.0186, 55.9191], [-86.9888, 55.9202], [-86.9663, 55.9149], [-86.9536, 55.9165], [-86.9593, 55.9097], [-86.9464, 55.9158], [-86.9081, 55.9161], [-86.8639, 55.898], [-86.8503, 55.8977], [-86.7845, 55.8752], [-86.7628, 55.8722], [-86.7217, 55.8536], [-86.6862, 55.8418], [-86.606, 55.8298], [-86.5486, 55.8092], [-86.4704, 55.7926], [-86.372, 55.7647], [-86.3118, 55.7287], [-86.26, 55.7072], [-86.1632, 55.6918], [-86.13, 55.6896], [-86.1118, 55.683], [-86.0591, 55.6735], [-86.0519, 55.6686], [-86.0557, 55.6627], [-86.0468, 55.6698], [-86.0136, 55.673], [-85.9028, 55.6554], [-85.8639, 55.6338], [-85.8601, 55.6265], [-85.8334, 55.6247], [-85.7787, 55.5982], [-85.7284, 55.5967], [-85.7181, 55.5903], [-85.695, 55.5847], [-85.681, 55.575], [-85.6525, 55.5703], [-85.6397, 55.5631], [-85.6383, 55.5535], [-85.6305, 55.5452], [-85.5903, 55.5217], [-85.5785, 55.5093], [-85.5838, 55.5077], [-85.58, 55.5042], [-85.5645, 55.5063], [-85.549, 55.4998], [-85.5334, 55.4848], [-85.5033, 55.4686], [-85.5016, 55.4622], [-85.4945, 55.4564], [-85.4184, 55.4202], [-85.3993, 55.4054], [-85.3321, 55.3825], [-85.3027, 55.3824], [-85.2627, 55.3727], [-85.2292, 55.375], [-85.2246, 55.3728], [-85.213, 55.3498], [-85.2067, 55.3459], [-85.1721, 55.3482], [-85.1552, 55.344], [-85.1476, 55.3359], [-85.1261, 55.3336], [-85.1229, 55.3305], [-85.1233, 55.3173], [-85.1109, 55.3106], [-85.1087, 55.3025], [-85.1111, 55.2982], [-85.1072, 55.292], [-85.0429, 55.2745], [-85.0059, 55.269], [-84.9906, 55.2763], [-84.9738, 55.2795], [-84.954, 55.2706], [-84.9295, 55.2651], [-84.9064, 55.269], [-84.896, 55.2611], [-84.8393, 55.2526], [-84.8136, 55.2523], [-84.803, 55.247], [-84.7973, 55.2394], [-84.7876, 55.2364], [-84.7482, 55.2381], [-84.7405, 55.2354], [-84.7301, 55.2388], [-84.7132, 55.2343], [-84.6662, 55.2354], [-84.586, 55.2425], [-84.5638, 55.2414], [-84.551, 55.2367], [-84.5335, 55.2398], [-84.4921, 55.24], [-84.4597, 55.2486], [-84.4409, 55.2588], [-84.3985, 55.2655], [-84.3276, 55.2689], [-84.3067, 55.2781], [-84.2725, 55.2698], [-84.2392, 55.2681], [-84.218, 55.2713], [-84.1977, 55.2814], [-84.19, 55.2754], [-84.1714, 55.2785], [-84.1608, 55.2719], [-84.1271, 55.2624], [-84.1224, 55.2537], [-84.1038, 55.2548], [-84.0827, 55.2511], [-84.0555, 55.2614], [-83.9987, 55.2741], [-83.9587, 55.2908], [-83.9375, 55.2943], [-83.8865, 55.295], [-83.8638, 55.2843], [-83.8408, 55.278], [-83.816, 55.2767], [-83.7755, 55.2574], [-83.749, 55.2527], [-83.738, 55.2438], [-83.6943, 55.2223], [-83.6734, 55.2276], [-83.6306, 55.2121], [-83.6351, 55.2192], [-83.6669, 55.2329], [-83.6842, 55.2497], [-83.6965, 55.2568], [-83.6971, 55.2644], [-83.6928, 55.2679], [-83.67, 55.2685], [-83.6513, 55.2648], [-83.645, 55.2621], [-83.6418, 55.2561], [-83.624, 55.2506], [-83.5494, 55.2423], [-83.4909, 55.2206], [-83.4574, 55.2117], [-83.412, 55.21], [-83.4108, 55.2126], [-83.422, 55.2189], [-83.4115, 55.2216], [-83.3388, 55.1986], [-83.3113, 55.2015], [-83.312, 55.2087], [-83.3087, 55.2119], [-83.2644, 55.21], [-83.2564, 55.2115], [-83.2542, 55.217], [-83.2239, 55.217], [-83.2087, 55.2135], [-83.1858, 55.2013], [-83.1423, 55.1979], [-83.0903, 55.2034], [-83.0803, 55.2074], [-83.0721, 55.2047], [-83.0582, 55.2059], [-82.9774, 55.2233], [-82.9589, 55.222], [-82.9235, 55.2092], [-82.914, 55.2011], [-82.8863, 55.1579], [-82.8849, 55.1467], [-82.8033, 55.1283], [-82.7728, 55.1296], [-82.7309, 55.1408], [-82.7084, 55.1404], [-82.7205, 55.157], [-82.7104, 55.1627], [-82.6812, 55.1611], [-82.6805, 55.1666], [-82.6741, 55.1701], [-82.6819, 55.1785], [-82.6802, 55.1801], [-82.6618, 55.169], [-82.6334, 55.1591], [-82.6284, 55.1524], [-82.6301, 55.1448], [-82.6274, 55.143], [-82.5927, 55.146], [-82.5717, 55.139], [-82.5364, 55.1104], [-82.5171, 55.0905], [-82.51, 55.0916], [-82.4945, 55.1077], [-82.4697, 55.1035], [-82.4575, 55.1161], [-82.4533, 55.1162], [-82.4277, 55.0996], [-82.419, 55.0772], [-82.4046, 55.07], [-82.3788, 55.0639], [-82.3538, 55.0676], [-82.3111, 55.0544], [-82.3069, 55.0555], [-82.3072, 55.0629], [-82.3329, 55.098], [-82.3296, 55.102], [-82.309, 55.1027], [-82.3113, 55.1205], [-82.3246, 55.1319], [-82.3361, 55.133], [-82.3455, 55.1382], [-82.3546, 55.1528], [-82.3521, 55.1567], [-82.3483, 55.1592], [-82.3432, 55.1554], [-82.3461, 55.1492], [-82.3381, 55.1376], [-82.331, 55.1398], [-82.3349, 55.1484], [-82.3334, 55.1514], [-82.3218, 55.1493], [-82.3175, 55.1335], [-82.3086, 55.1332], [-82.3026, 55.1284], [-82.301, 55.1192], [-82.2918, 55.1179], [-82.2829, 55.1221], [-82.2763, 55.117], [-82.2532, 55.1095], [-82.2499, 55.1052], [-82.2504, 55.0931], [-82.2439, 55.0768], [-82.2426, 55.0622], [-82.2496, 55.0561], [-82.2707, 55.0497], [-82.2753, 55.0391], [-82.2739, 55.0169], [-82.2581, 54.9961], [-82.2537, 54.9483], [-82.2577, 54.9349], [-82.2618, 54.9418], [-82.2659, 54.9416], [-82.2672, 54.9129], [-82.2614, 54.8888], [-82.2548, 54.876], [-82.2398, 54.8603], [-82.232, 54.8603], [-82.2269, 54.873], [-82.2166, 54.8764], [-82.2076, 54.8739], [-82.206, 54.8695], [-82.2092, 54.8635], [-82.199, 54.8365], [-82.1978, 54.8038], [-82.2017, 54.7911], [-82.211, 54.7773], [-82.215, 54.7604], [-82.2348, 54.7418], [-82.2427, 54.7277], [-82.2561, 54.7166], [-82.2885, 54.6554], [-82.2901, 54.6512], [-82.2839, 54.6445], [-82.2825, 54.6327], [-82.298, 54.608], [-82.3015, 54.5896], [-82.3053, 54.5846], [-82.3034, 54.581], [-82.3162, 54.5089], [-82.3464, 54.4649], [-82.3815, 54.4002], [-82.3848, 54.3867], [-82.3995, 54.3583], [-82.4248, 54.3242], [-82.4337, 54.2957], [-82.4366, 54.2547], [-82.4298, 54.2349], [-82.4273, 54.206], [-82.3949, 54.1641], [-82.3563, 54.1274], [-82.3295, 54.1133], [-82.2969, 54.0891], [-82.233, 54.0277], [-82.2257, 54.0055], [-82.2023, 53.9589], [-82.1825, 53.9355], [-82.1648, 53.8938], [-82.1535, 53.882], [-82.1426, 53.8479], [-82.1263, 53.8198], [-82.1299, 53.7694], [-82.1535, 53.7321], [-82.1626, 53.7239], [-82.1704, 53.7097], [-82.179, 53.7041], [-82.1828, 53.6914], [-82.19, 53.6828], [-82.2063, 53.636], [-82.2094, 53.6056], [-82.2159, 53.5879], [-82.2084, 53.566], [-82.2091, 53.5438], [-82.2, 53.5179], [-82.1723, 53.475], [-82.1535, 53.4151], [-82.1401, 53.3877], [-82.1255, 53.3348], [-82.1129, 53.268], [-82.1148, 53.2641], [-82.1614, 53.2452], [-82.203, 53.2176], [-82.2215, 53.202], [-82.2253, 53.194], [-82.2322, 53.1931], [-82.2354, 53.1826], [-82.2717, 53.1342], [-82.2736, 53.1165], [-82.281, 53.1171], [-82.274, 53.1127], [-82.2805, 53.0984], [-82.2808, 53.0795], [-82.2867, 53.0645], [-82.2906, 53.0704], [-82.29, 53.0833], [-82.2929, 53.0784], [-82.2929, 53.0678], [-82.2875, 53.0612], [-82.283, 53.0373], [-82.2808, 53.0045], [-82.2859, 53.0009], [-82.2781, 52.9986], [-82.2732, 52.9834], [-82.2753, 52.9792], [-82.2825, 52.9774], [-82.2704, 52.9749], [-82.2632, 52.9474], [-82.237, 52.9213], [-82.2069, 52.9074], [-82.1653, 52.9001], [-82.1141, 52.883], [-82.0635, 52.8455], [-82.0292, 52.8259], [-82.0139, 52.8087], [-81.9596, 52.7779], [-81.9576, 52.7759], [-81.9597, 52.7731], [-82.0, 52.7671], [-82.0, 52.7645], [-81.9684, 52.7677], [-81.955, 52.7626], [-81.9495, 52.7566], [-81.925, 52.7019], [-81.8839, 52.6648], [-81.814, 52.6343], [-81.7689, 52.6095], [-81.6898, 52.5321], [-81.6368, 52.4891], [-81.5926, 52.4605], [-81.5457, 52.4432], [-81.5423, 52.438], [-81.543, 52.4272], [-81.5567, 52.4092], [-81.563, 52.3925], [-81.5612, 52.3711], [-81.5531, 52.3519], [-81.54, 52.3402], [-81.5248, 52.3327], [-81.4948, 52.3018], [-81.4784, 52.2912], [-81.4651, 52.2357], [-81.4424, 52.184], [-81.4316, 52.1673], [-81.4177, 52.1533], [-81.4226, 52.1453], [-81.4048, 52.1352], [-81.3906, 52.1204], [-81.3651, 52.1042], [-81.3496, 52.0981], [-81.2339, 52.0678], [-81.2204, 52.0615], [-81.2071, 52.0618], [-81.1602, 52.0413], [-81.1162, 52.0421], [-81.1183, 52.0395], [-81.1101, 52.0373], [-81.096, 52.0468], [-81.0938, 52.058], [-81.0883, 52.0606], [-81.0793, 52.0578], [-81.081, 52.0428], [-81.0602, 52.0273], [-81.0517, 52.0257], [-81.0431, 52.0293], [-81.0415, 52.0366], [-81.0467, 52.0396], [-81.0438, 52.0402], [-81.0378, 52.0379], [-81.0392, 52.0292], [-81.0278, 52.0164], [-80.9891, 52.0114], [-80.9752, 52.0], [-80.9786, 52.0], [-80.9686, 51.9843], [-80.9582, 51.981], [-80.9119, 51.9202], [-80.8899, 51.9075], [-80.8811, 51.8987], [-80.8721, 51.8971], [-80.8567, 51.906], [-80.8504, 51.9057], [-80.8448, 51.8897], [-80.8317, 51.8815], [-80.8238, 51.8803], [-80.807, 51.8929], [-80.7952, 51.8927], [-80.7933, 51.8891], [-80.7969, 51.8821], [-80.7862, 51.8613], [-80.7716, 51.8572], [-80.7718, 51.8501], [-80.7586, 51.8438], [-80.7495, 51.8588], [-80.7527, 51.8387], [-80.7397, 51.8419], [-80.7375, 51.8292], [-80.7099, 51.8136], [-80.7017, 51.8131], [-80.6975, 51.8164], [-80.6959, 51.8334], [-80.6916, 51.8463], [-80.6885, 51.8462], [-80.6923, 51.82], [-80.6887, 51.8056], [-80.6805, 51.8009], [-80.6641, 51.7978], [-80.6554, 51.7918], [-80.6526, 51.7805], [-80.6402, 51.7662], [-80.6141, 51.7481], [-80.5658, 51.7017], [-80.5632, 51.6909], [-80.5719, 51.675], [-80.5702, 51.6655], [-80.5506, 51.6292], [-80.5319, 51.6055], [-80.5215, 51.5818], [-80.5137, 51.5498], [-80.496, 51.5218], [-80.464, 51.5], [-80.4468, 51.4928], [-80.4318, 51.4643], [-80.428, 51.4518], [-80.4363, 51.4104], [-80.4328, 51.3828], [-80.3847, 51.3393], [-80.3398, 51.3298], [-80.3317, 51.3249], [-80.331, 51.3276], [-80.3216, 51.3253], [-80.3183, 51.324], [-80.3202, 51.3181], [-80.3129, 51.3165], [-80.307, 51.3189], [-80.2921, 51.3142], [-80.2925, 51.3085], [-80.2765, 51.3107], [-80.2118, 51.2964], [-80.1779, 51.2928], [-80.1327, 51.2896], [-80.1164, 51.2919], [-80.0982, 51.2778], [-80.0796, 51.273], [-80.06, 51.2587], [-80.0225, 51.2549], [-79.9902, 51.2439], [-79.9458, 51.2063], [-79.9477, 51.2038], [-79.8877, 51.1678], [-79.855, 51.1616], [-79.8009, 51.1569], [-79.7859, 51.1684], [-79.7894, 51.1753], [-79.7809, 51.1769], [-79.7749, 51.1741], [-79.7691, 51.1792], [-79.7708, 51.1817], [-79.7542, 51.1843], [-79.7472, 51.1891], [-79.7492, 51.1916], [-79.7471, 51.1973], [-79.734, 51.2191], [-79.7209, 51.2313], [-79.7194, 51.229], [-79.7106, 51.2313], [-79.7115, 51.237], [-79.707, 51.2391], [-79.7075, 51.2452], [-79.6912, 51.2683], [-79.6869, 51.2803], [-79.6955, 51.2888], [-79.694, 51.2918], [-79.7012, 51.2917], [-79.7167, 51.2983], [-79.7326, 51.3122], [-79.7446, 51.3295], [-79.7386, 51.3381], [-79.7419, 51.3424], [-79.7419, 51.3514], [-79.7365, 51.3531], [-79.7357, 51.3569], [-79.7281, 51.3552], [-79.7259, 51.3575], [-79.7326, 51.3643], [-79.7314, 51.3665], [-79.736, 51.3667], [-79.7349, 51.3709], [-79.714, 51.3821], [-79.7078, 51.3807], [-79.7126, 51.369], [-79.7084, 51.3642], [-79.7121, 51.3603], [-79.7157, 51.3629], [-79.7142, 51.3582], [-79.7226, 51.3531], [-79.7164, 51.3514], [-79.7123, 51.3453], [-79.7081, 51.3478], [-79.7034, 51.3597], [-79.6992, 51.3609], [-79.6741, 51.3436], [-79.6724, 51.3523], [-79.6817, 51.3629], [-79.6884, 51.3774], [-79.6827, 51.3902], [-79.6734, 51.3951], [-79.6862, 51.3973], [-79.6798, 51.4017], [-79.6816, 51.4037], [-79.6728, 51.4005], [-79.6596, 51.405], [-79.645, 51.3991], [-79.6358, 51.4049], [-79.6331, 51.4144], [-79.6181, 51.4136], [-79.6111, 51.4162], [-79.6016, 51.4322], [-79.5927, 51.4308], [-79.5898, 51.4353], [-79.5786, 51.4405], [-79.5728, 51.4576], [-79.5687, 51.4594], [-79.574, 51.4659], [-79.5647, 51.4646], [-79.5546, 51.4584], [-79.5337, 51.4566], [-79.5164, 51.4603], [-79.5169, 50.1251], [-80.4998, 50.1251], [-80.4998, 50.4994], [-81.0721, 50.4994], [-81.0721, 50.4904], [-81.668, 50.49], [-81.6685, 50.3612], [-81.872, 50.3612], [-81.872, 50.2307], [-81.8675, 50.2306], [-81.8674, 50.1018], [-82.4181, 50.1013], [-82.4178, 50.1063], [-82.3903, 50.1098], [-82.3897, 50.1177], [-82.3852, 50.1229], [-83.0471, 50.1221], [-83.0479, 50.1514], [-83.041, 50.1534], [-83.0342, 50.1701], [-83.0083, 50.1647], [-82.9893, 50.1836], [-82.9749, 50.1856], [-82.9632, 50.1802], [-82.9497, 50.1827], [-82.9435, 50.1857], [-82.9421, 50.1931], [-82.9364, 50.1988], [-82.8896, 50.2112], [-82.8726, 50.2194], [-82.878, 50.2212], [-82.8875, 50.2147], [-82.894, 50.2165], [-82.8925, 50.2208], [-82.9077, 50.2165], [-82.904, 50.2133], [-82.9131, 50.2149], [-82.918, 50.2124], [-82.922, 50.2153], [-82.9233, 50.2102], [-82.9255, 50.2128], [-82.9306, 50.2101], [-82.9331, 50.2146], [-82.9357, 50.2099], [-82.9399, 50.2129], [-82.9453, 50.209], [-82.9552, 50.2093], [-82.9565, 50.2061], [-82.964, 50.2068], [-82.969, 50.2], [-82.9839, 50.205], [-82.9745, 50.2109], [-82.9768, 50.2145], [-82.9896, 50.212], [-82.9866, 50.2136], [-82.9892, 50.2197], [-82.992, 50.2149], [-82.9968, 50.2199], [-83.007, 50.2177], [-83.0071, 50.2218], [-83.0183, 50.2226], [-83.0204, 50.2216], [-83.0181, 50.2169], [-83.0263, 50.2188], [-83.0338, 50.2165], [-83.0428, 50.2198], [-83.0542, 50.2161], [-83.06, 50.2211], [-83.0509, 50.2229], [-83.0565, 50.2267], [-83.0647, 50.2258], [-83.0586, 50.2301], [-83.0724, 50.2263], [-83.0698, 50.2297], [-83.0759, 50.2324], [-83.0819, 50.2337], [-83.083, 50.2284], [-83.0847, 50.2332], [-83.0915, 50.2343], [-83.0977, 50.2303], [-83.1016, 50.2348], [-83.1102, 50.2303], [-83.1142, 50.2337], [-83.1135, 50.2282], [-83.1274, 50.2246], [-83.1242, 50.2225], [-83.134, 50.2172], [-83.1462, 50.2222], [-83.1477, 50.22], [-83.1421, 50.2192], [-83.146, 50.2142], [-83.1517, 50.2162], [-83.1515, 50.2102], [-83.1577, 50.2124], [-83.1562, 50.2088], [-83.1635, 50.2052], [-83.1719, 50.208], [-83.1704, 50.2046], [-83.1756, 50.2021], [-83.1825, 50.2045], [-83.1793, 50.2016], [-83.1911, 50.1997], [-83.1863, 50.1983], [-83.1878, 50.1962], [-83.1983, 50.2], [-83.2008, 50.1935], [-83.2099, 50.1966], [-83.2208, 50.1908], [-83.2246, 50.195], [-83.2275, 50.1905], [-83.2229, 50.19], [-83.225, 50.1876], [-83.2329, 50.1859], [-83.2393, 50.1899], [-83.2397, 50.1868], [-83.2438, 50.1886], [-83.2519, 50.186], [-83.2604, 50.1799], [-83.2722, 50.1837], [-83.2792, 50.1757], [-83.3025, 50.17], [-83.3075, 50.1746], [-83.3136, 50.1713], [-83.331, 50.1708], [-83.3413, 50.1643], [-83.3559, 50.1658], [-83.3583, 50.1623], [-83.368, 50.168], [-83.3677, 50.1645], [-83.3723, 50.1658], [-83.3806, 50.1603], [-83.397, 50.1618], [-83.4143, 50.1533], [-83.4209, 50.1553], [-83.4351, 50.1517], [-83.4596, 50.1404], [-83.4686, 50.1426], [-83.4796, 50.1407], [-83.5293, 50.1268], [-83.5383, 50.1191], [-83.5371, 50.1124], [-83.5426, 50.1051], [-83.6807, 50.1048], [-83.681, 50.129], [-83.7614, 50.1286], [-83.7617, 50.1671], [-83.8058, 50.1669], [-83.8532, 50.1282], [-83.9534, 50.128], [-83.9532, 50.1038], [-84.179, 50.103], [-84.1838, 50.108], [-84.1829, 50.1114], [-84.197, 50.1148], [-84.1976, 50.1187], [-84.2047, 50.1238], [-84.2047, 50.1281], [-84.2142, 50.1323], [-84.2253, 50.1307], [-84.2262, 50.1419], [-84.2384, 50.1437], [-84.2418, 50.147], [-84.2373, 50.1507], [-84.1865, 50.1513], [-84.1947, 50.157], [-84.1937, 50.1653], [-84.1968, 50.1675], [-84.1943, 50.1695], [-84.1988, 50.1713], [-84.1958, 50.1736], [-84.2019, 50.1832], [-84.1943, 50.1867], [-84.1997, 50.1852], [-84.1986, 50.1893], [-84.2041, 50.1887], [-84.2029, 50.1938], [-84.1985, 50.1944], [-84.2235, 50.2688], [-84.2764, 50.3612], [-84.3223, 50.3613], [-84.3226, 50.2291], [-84.3785, 50.1493], [-84.3258, 50.1111], [-84.3262, 50.102], [-84.3282, 50.0994], [-84.3477, 50.0999], [-84.3663, 50.0877], [-84.3832, 50.0846], [-84.3945, 50.0722], [-84.3982, 50.0611], [-84.4233, 50.0536], [-84.427, 50.0496], [-84.4226, 50.0461], [-85.2244, 50.0462], [-85.2244, 50.0495], [-85.2106, 50.054], [-85.2016, 50.0672], [-85.1972, 50.0676], [-85.1972, 50.0641], [-85.1905, 50.0691], [-85.1809, 50.0692], [-85.178, 50.0755], [-85.1652, 50.0801], [-85.1347, 50.0791], [-85.1206, 50.09], [-85.1056, 50.0895], [-85.0911, 50.0941], [-85.0911, 50.0981], [-85.25, 50.0986], [-85.25, 50.2177], [-85.2593, 50.2172], [-85.2602, 50.224], [-85.2868, 50.2255], [-85.2921, 50.2231], [-85.3146, 50.23], [-85.3599, 50.2287], [-85.3697, 50.2331], [-85.3963, 50.226], [-85.4181, 50.2254], [-85.4416, 50.2184], [-85.461, 50.218], [-85.4764, 50.2128], [-85.5, 50.218], [-85.5, 50.25], [-85.75, 50.25], [-85.75, 50.4549], [-86.0, 50.4549], [-86.0, 50.7437], [-86.0207, 50.738], [-86.0319, 50.7318], [-86.0332, 50.7265], [-86.0452, 50.7246], [-86.0476, 50.721], [-86.0587, 50.7228], [-86.0718, 50.7205], [-86.1006, 50.726], [-86.1169, 50.719], [-86.15, 50.7222], [-86.1654, 50.7168], [-86.1833, 50.7151], [-86.1909, 50.719], [-86.2101, 50.7125], [-86.215, 50.7063], [-86.2282, 50.7046], [-86.2308, 50.6993], [-86.2555, 50.6999], [-86.2588, 50.6932], [-86.2834, 50.7009], [-86.3061, 50.6953], [-86.3172, 50.7012], [-86.329, 50.7022], [-86.3374, 50.7102], [-86.3653, 50.7011], [-86.3662, 50.7052], [-86.3851, 50.7125], [-86.3925, 50.7076], [-86.4041, 50.7068], [-86.4151, 50.6979], [-86.4466, 50.6917], [-86.472, 50.6747], [-86.5017, 50.662], [-86.5283, 50.6569], [-86.5341, 50.6608], [-86.536, 50.6665], [-86.5492, 50.6665], [-86.5495, 51.0001], [-87.2857, 51.0001], [-87.2886, 51.2712], [-87.3024, 51.2685], [-87.3128, 51.2713], [-87.3577, 51.2608], [-87.3663, 51.2629], [-87.3706, 51.2594], [-87.395, 51.2617], [-87.3992, 51.2585], [-87.4186, 51.2565], [-87.4302, 51.2489], [-87.4461, 51.2449], [-87.4578, 51.2502], [-87.464, 51.2457], [-87.4695, 51.2484], [-87.4716, 51.2421], [-87.4746, 51.2428], [-87.4706, 51.2461], [-87.4736, 51.2491], [-87.5014, 51.2399], [-87.5123, 51.2413], [-87.519, 51.2381], [-87.5392, 51.2375], [-87.5509, 51.2322], [-87.5534, 51.2347], [-87.5557, 51.2299], [-87.558, 51.2348], [-87.5367, 51.2388], [-87.5351, 51.2435], [-87.5526, 51.2383], [-87.5353, 51.2462], [-87.5392, 51.2473], [-87.5392, 51.2505], [-87.5297, 51.2541], [-87.5323, 51.2585], [-87.5289, 51.2621], [-87.5353, 51.2631], [-87.5444, 51.2581], [-87.5563, 51.2573], [-87.5533, 51.2603], [-87.5658, 51.2589], [-87.5647, 51.2619], [-87.5695, 51.2632], [-87.5667, 51.2666], [-87.5718, 51.2714], [-87.6165, 51.274], [-87.6131, 51.2746], [-87.613, 51.2792], [-87.6177, 51.2807], [-87.6221, 51.2774], [-87.6208, 51.2802], [-87.6361, 51.2807], [-87.6405, 51.2775], [-87.6522, 51.2801], [-87.6443, 51.2839], [-87.6485, 51.291], [-87.6466, 51.2968], [-87.664, 51.3123], [-87.702, 51.3074], [-87.709, 51.3005], [-87.6973, 51.2965], [-87.681, 51.2969], [-87.6834, 51.2919], [-87.6775, 51.2916], [-87.6838, 51.2919], [-87.6825, 51.295], [-87.6853, 51.2966], [-87.711, 51.2916], [-87.7145, 51.2888], [-87.7122, 51.2878], [-87.7213, 51.2835], [-87.7295, 51.2849], [-87.7546, 51.2769], [-87.7642, 51.2683], [-87.7672, 51.2712], [-87.7621, 51.2741], [-87.7641, 51.2753], [-87.7761, 51.2612], [-87.767, 51.2789], [-87.7568, 51.2817], [-87.7538, 51.2772], [-87.749, 51.2817], [-87.7534, 51.2827], [-87.7522, 51.2849], [-87.7189, 51.292], [-87.7205, 51.2936], [-87.7172, 51.2949], [-87.7217, 51.2983], [-87.7099, 51.3019], [-87.7131, 51.3048], [-87.7088, 51.306], [-87.708, 51.31], [-87.6793, 51.3152], [-87.6811, 51.3177], [-87.6759, 51.3208], [-87.6905, 51.3246], [-87.6883, 51.3283], [-87.6914, 51.3293], [-87.6884, 51.3315], [-87.6912, 51.335], [-87.6994, 51.3327], [-87.7119, 51.3354], [-87.7075, 51.3367], [-87.7116, 51.3411], [-87.7226, 51.3382], [-87.7222, 51.3429], [-87.7421, 51.3441], [-87.7469, 51.3565], [-87.7446, 51.3593], [-87.7499, 51.361], [-87.7652, 51.3621], [-87.7943, 51.3481], [-87.8099, 51.3477], [-87.8053, 51.3487], [-87.7913, 51.3625], [-87.8014, 51.3738], [-87.7927, 51.3792], [-87.7948, 51.3912], [-87.8005, 51.396], [-87.797, 51.4009], [-87.8525, 51.4112], [-87.8642, 51.4093], [-87.8645, 51.4056], [-87.8755, 51.4083], [-87.8772, 51.4037], [-87.8829, 51.4029], [-87.8946, 51.3931], [-87.9064, 51.3937], [-87.9117, 51.3883], [-87.9165, 51.3875], [-87.918, 51.3903], [-87.9264, 51.3851], [-87.9386, 51.384], [-87.9402, 51.3866], [-87.9327, 51.3904], [-87.9402, 51.3889], [-87.9401, 51.3922], [-87.9444, 51.3913], [-87.95, 51.3958], [-87.935, 51.4055], [-87.9334, 51.4095], [-87.9201, 51.4105], [-87.9111, 51.405], [-87.8951, 51.4021], [-87.8787, 51.4155], [-87.859, 51.4157], [-87.8254, 51.4092], [-87.8173, 51.412], [-87.815, 51.4188], [-87.8349, 51.4286], [-87.8346, 51.4324], [-87.8513, 51.4353], [-87.8641, 51.4338], [-87.8669, 51.4367], [-87.8607, 51.441], [-87.878, 51.442], [-87.8836, 51.4456], [-87.8813, 51.4499], [-87.9125, 51.4474], [-87.918, 51.4545], [-87.9168, 51.457], [-87.9213, 51.459], [-87.9412, 51.4537], [-87.9431, 51.4568], [-87.9409, 51.4605], [-87.9456, 51.4596], [-87.9464, 51.463], [-87.9406, 51.47], [-87.9436, 51.4738], [-87.9551, 51.4779], [-87.9692, 51.476], [-87.9759, 51.4828], [-87.9928, 51.4828], [-87.9764, 51.486], [-87.9757, 51.489], [-87.9983, 51.4885], [-88.0034, 51.4929], [-88.025, 51.4974], [-88.0371, 51.4919], [-88.0284, 51.4887], [-88.0285, 51.486], [-88.0386, 51.4916], [-88.0823, 51.4793], [-88.1025, 51.4856], [-88.1111, 51.485], [-88.117, 51.4815], [-88.1168, 51.4772], [-88.1325, 51.4734], [-88.1475, 51.4648], [-88.1501, 51.4652], [-88.1406, 51.4695], [-88.1783, 51.465], [-88.184, 51.4582], [-88.1703, 51.4574], [-88.1686, 51.4546], [-88.1735, 51.455], [-88.1747, 51.4506], [-88.2161, 51.4534], [-88.2196, 51.4516], [-88.2042, 51.45], [-88.2332, 51.4451], [-88.2349, 51.4475], [-88.2182, 51.4543], [-88.2214, 51.4566], [-88.2293, 51.4548], [-88.2294, 51.4608], [-88.2195, 51.4639], [-88.2047, 51.4622], [-88.1931, 51.468], [-88.1933, 51.4713], [-88.22, 51.4699], [-88.2181, 51.4731], [-88.2313, 51.4747], [-88.2463, 51.4722], [-88.2441, 51.4743], [-88.2464, 51.4767], [-88.2722, 51.4762], [-88.2698, 51.4796], [-88.2792, 51.4757], [-88.2677, 51.4716], [-88.2832, 51.4724], [-88.2791, 51.4705], [-88.2846, 51.4726], [-88.2792, 51.4745], [-88.2961, 51.4747], [-88.3115, 51.48], [-88.3211, 51.4763], [-88.3245, 51.4784], [-88.3206, 51.4831], [-88.3232, 51.4843], [-88.3342, 51.4811], [-88.3397, 51.4771], [-88.3375, 51.4723], [-88.351, 51.4656], [-88.3595, 51.4672], [-88.3426, 51.4719], [-88.3504, 51.4754], [-88.3809, 51.4702], [-88.3814, 51.4725], [-88.3756, 51.4734], [-88.3778, 51.4748], [-88.4044, 51.4707], [-88.4085, 51.4642], [-88.41, 51.4686], [-88.4203, 51.4651], [-88.4199, 51.4682], [-88.4091, 51.4687], [-88.408, 51.4724], [-88.3961, 51.4743], [-88.4061, 51.4775], [-88.4014, 51.4852], [-88.4826, 51.4997], [-88.4964, 51.4935], [-88.4984, 51.4959], [-88.5019, 51.4922], [-88.5132, 51.4928], [-88.5153, 51.495], [-88.5109, 51.4988], [-88.5294, 51.507], [-88.5241, 51.508], [-88.5267, 51.5125], [-88.5207, 51.5151], [-88.5282, 51.5156], [-88.5298, 51.5201], [-88.5275, 51.5224], [-88.5425, 51.5271], [-88.5413, 51.5313], [-88.5568, 51.5405], [-88.5562, 51.543], [-88.5348, 51.5495], [-88.5414, 51.5522], [-88.5591, 51.5501], [-88.5738, 51.5563], [-88.5888, 51.549], [-88.6022, 51.551], [-88.6087, 51.5439], [-88.6236, 51.5434], [-88.6258, 51.545], [-88.6205, 51.5467], [-88.6241, 51.5473], [-88.6543, 51.5385], [-88.6853, 51.5477], [-88.7084, 51.5436], [-88.7183, 51.5448], [-88.7235, 51.55], [-88.7339, 51.5469], [-88.7598, 51.5521], [-88.7464, 51.5514], [-88.7385, 51.5581], [-88.7963, 51.5564], [-88.8146, 51.5522], [-88.8313, 51.5564], [-88.848, 51.5431], [-88.8426, 51.5355], [-88.849, 51.5308], [-88.8514, 51.5159], [-88.8577, 51.5091], [-88.8682, 51.5093], [-88.9295, 51.4866], [-88.9422, 51.4887], [-88.9535, 51.4803], [-88.9673, 51.4811], [-88.9713, 51.4784], [-88.9644, 51.4762], [-88.9751, 51.4618], [-88.975, 51.4499], [-88.9822, 51.4403], [-88.9914, 51.4323], [-89.0121, 51.4238], [-89.0295, 51.4275], [-89.035, 51.4353], [-89.0254, 51.4473], [-89.0087, 51.449], [-89.0012, 51.4463], [-88.9978, 51.4485], [-89.0186, 51.4537], [-89.0241, 51.4656], [-89.0217, 51.4862], [-88.9994, 51.4999], [-89.0036, 51.5027], [-89.0154, 51.5007], [-89.0366, 51.5042], [-89.0523, 51.5124], [-89.0526, 51.5182], [-89.0648, 51.5165], [-89.0796, 51.5208], [-89.1096, 51.5206], [-89.1277, 51.5106], [-89.1393, 51.493], [-89.1514, 51.4868], [-89.1781, 51.4487], [-89.1773, 51.4305], [-89.1872, 51.4232], [-89.1826, 51.4057], [-89.176, 51.4043], [-89.151, 51.3665], [-89.1821, 51.3201], [-89.2079, 51.297], [-89.2138, 51.2782], [-89.2274, 51.2693], [-89.2646, 51.2668], [-89.2815, 51.2609], [-89.2829, 51.2576], [-89.269, 51.2432], [-89.2682, 51.2329], [-89.274, 51.2257], [-89.2982, 51.2157], [-89.329, 51.2132], [-89.3427, 51.209], [-89.3721, 51.1923], [-89.3904, 51.177], [-89.4318, 51.1634], [-89.4393, 51.1529], [-89.4471, 51.1326], [-89.4532, 51.1262], [-89.4535, 51.1145], [-89.464, 51.1079], [-89.4702, 51.0982], [-89.4921, 51.0945], [-89.5285, 51.0718], [-89.571, 51.0365], [-89.6529, 51.0154], [-89.7521, 51.0001], [-89.8848, 51.0002], [-89.8776, 51.0098], [-89.8591, 51.017], [-89.8653, 51.0205], [-89.8858, 51.0132], [-89.8947, 51.0002], [-90.1659, 51.0003], [-90.1664, 51.1296], [-90.1927, 51.1187], [-90.1919, 51.1155], [-90.1825, 51.1201], [-90.1772, 51.1182], [-90.1881, 51.1126], [-90.2083, 51.1135], [-90.2147, 51.1175], [-90.2218, 51.1136], [-90.2228, 51.0321], [-90.3145, 51.0326], [-90.3141, 51.0786], [-90.3358, 51.0774], [-90.3364, 51.0752], [-90.3287, 51.0726], [-90.3349, 51.0669], [-90.3401, 51.0696], [-90.3462, 51.067], [-90.3367, 51.0609], [-90.343, 51.0562], [-90.3525, 51.0537], [-90.3618, 51.0566], [-90.3629, 51.0536], [-90.3674, 51.0535], [-90.3849, 51.0637], [-90.4002, 51.06], [-90.4141, 51.0515], [-90.4056, 51.0496], [-90.4214, 51.0454], [-90.4195, 51.0423], [-90.4236, 51.0392], [-90.4199, 51.0349], [-90.4262, 51.0341], [-90.4229, 51.0383], [-90.4273, 51.0376], [-90.4296, 51.0305], [-90.4357, 51.0289], [-90.4319, 51.0236], [-90.4362, 51.0187], [-90.4328, 51.0168], [-90.4394, 51.0065], [-90.4386, 51.0085], [-90.4424, 51.0086], [-90.4391, 51.0092], [-90.4379, 51.0182], [-90.433, 51.0236], [-90.4375, 51.0283], [-90.4345, 51.0318], [-90.4416, 51.0315], [-90.4462, 51.0247], [-90.4516, 51.0269], [-90.4566, 51.0195], [-90.4511, 51.033], [-90.4572, 51.0362], [-90.4616, 51.0322], [-90.4591, 51.0388], [-90.4662, 51.0397], [-90.4422, 51.0447], [-90.44, 51.0487], [-90.425, 51.052], [-90.4232, 51.0544], [-90.4301, 51.0532], [-90.4278, 51.0568], [-90.4215, 51.0572], [-90.4115, 51.0638], [-90.4198, 51.0613], [-90.4228, 51.0626], [-90.4153, 51.0665], [-90.4303, 51.0678], [-90.4136, 51.0811], [-90.4285, 51.0809], [-90.4197, 51.0855], [-90.4271, 51.088], [-90.4536, 51.0804], [-90.4569, 51.0846], [-90.4655, 51.0826], [-90.4719, 51.0757], [-90.4756, 51.0766], [-90.4743, 51.0706], [-90.48, 51.0718], [-90.48, 51.0754], [-90.4548, 51.0923], [-90.4681, 51.0871], [-90.4582, 51.0985], [-90.4673, 51.0957], [-90.4999, 51.0693], [-90.5065, 51.0664], [-90.5042, 51.0699], [-90.5151, 51.0676], [-90.4835, 51.0956], [-90.5209, 51.082], [-90.5183, 51.0915], [-90.5023, 51.0993], [-90.5029, 51.1015], [-90.4871, 51.1048], [-90.4847, 51.107], [-90.4893, 51.1072], [-90.4874, 51.1126], [-90.5557, 51.0721], [-90.5595, 51.0756], [-90.5749, 51.0683], [-90.5781, 51.0607], [-90.5898, 51.0541], [-90.6102, 51.0524], [-90.5965, 51.0486], [-90.6062, 51.0429], [-90.6053, 51.0456], [-90.6114, 51.0435], [-90.6154, 51.0363], [-90.612, 51.0443], [-90.614, 51.0457], [-90.6257, 51.0408], [-90.6275, 51.0378], [-90.6208, 51.0357], [-90.6191, 51.0269], [-90.6242, 51.0348], [-90.6305, 51.0327], [-90.6273, 51.0415], [-90.6442, 51.0378], [-90.6487, 51.0299], [-90.6376, 51.0277], [-90.6488, 51.015], [-90.6512, 51.0144], [-90.6463, 51.0246], [-90.6523, 51.0219], [-90.6529, 51.0115], [-90.6562, 51.0123], [-90.6615, 51.0077], [-90.6556, 51.0162], [-90.6577, 51.0173], [-90.6536, 51.0275], [-90.6492, 51.0286], [-90.6531, 51.0324], [-90.6505, 51.0373], [-90.6582, 51.0319], [-90.6588, 51.0266], [-90.6636, 51.0224], [-90.6634, 51.0261], [-90.6731, 51.0295], [-90.6385, 51.0488], [-90.6412, 51.0568], [-90.6356, 51.06], [-90.6595, 51.0513], [-90.662, 51.0537], [-90.6659, 51.052], [-90.6767, 51.0446], [-90.672, 51.0445], [-90.6844, 51.0302], [-90.6848, 51.0258], [-90.689, 51.0248], [-90.6896, 51.0298], [-90.6959, 51.0265], [-90.6964, 51.0295], [-90.7013, 51.0227], [-90.7087, 51.0196], [-91.232, 51.0196], [-91.2222, 51.0389], [-91.226, 51.0389], [-91.2253, 51.0444], [-91.2543, 51.0462], [-91.2516, 51.0423], [-91.246, 51.0421], [-91.2669, 51.0374], [-91.2538, 51.0434], [-91.2657, 51.0457], [-91.2665, 51.0486], [-91.2581, 51.0455], [-91.2556, 51.0469], [-91.2586, 51.0479], [-91.2381, 51.0497], [-91.2471, 51.0544], [-91.2532, 51.0526], [-91.27, 51.0562], [-91.2845, 51.0557], [-91.2889, 51.0522], [-91.2802, 51.0502], [-91.2941, 51.0479], [-91.2969, 51.044], [-91.3054, 51.0455], [-91.2995, 51.0457], [-91.2958, 51.0527], [-91.3059, 51.0547], [-91.3075, 51.0524], [-91.3206, 51.0564], [-91.3358, 51.0546], [-91.3345, 51.0497], [-91.3383, 51.0546], [-91.3765, 51.0403], [-91.3883, 51.0395], [-91.3847, 51.0338], [-91.3937, 51.0382], [-91.4218, 51.0334], [-91.4338, 51.0346], [-91.4335, 51.0401], [-91.4283, 51.04], [-91.4283, 51.0463], [-91.4207, 51.0518], [-91.423, 51.054], [-91.4299, 51.0485], [-91.428, 51.0569], [-91.4186, 51.0629], [-91.4122, 51.057], [-91.4078, 51.0666], [-91.4031, 51.0693], [-91.3902, 51.0717], [-91.3876, 51.0692], [-91.3873, 51.0721], [-91.3927, 51.0732], [-91.3868, 51.0802], [-91.3896, 51.0826], [-91.3792, 51.0822], [-91.3847, 51.0801], [-91.3799, 51.0797], [-91.3721, 51.0823], [-91.3903, 51.0827], [-91.3931, 51.0865], [-91.3966, 51.0823], [-91.3924, 51.0798], [-91.3975, 51.0764], [-91.3959, 51.0794], [-91.4013, 51.0812], [-91.3982, 51.082], [-91.3958, 51.0898], [-91.4026, 51.0822], [-91.4027, 51.0891], [-91.4296, 51.0893], [-91.4336, 51.0847], [-91.4303, 51.0877], [-91.417, 51.0882], [-91.411, 51.0843], [-91.4114, 51.0817], [-91.4238, 51.0828], [-91.424, 51.0786], [-91.4195, 51.0808], [-91.4081, 51.0789], [-91.4284, 51.077], [-91.4328, 51.078], [-91.4306, 51.0821], [-91.4336, 51.0838], [-91.4368, 51.0791], [-91.4511, 51.0787], [-91.4485, 51.0831], [-91.4403, 51.0842], [-91.4525, 51.0886], [-91.4448, 51.0889], [-91.4469, 51.0925], [-91.4395, 51.0936], [-91.4583, 51.0991], [-91.4692, 51.0985], [-91.4668, 51.1007], [-91.471, 51.1025], [-91.4652, 51.1031], [-91.4705, 51.1043], [-91.4666, 51.1055], [-91.4956, 51.1055], [-91.4936, 51.1084], [-91.4963, 51.1104], [-91.4921, 51.1137], [-91.5128, 51.107], [-91.511, 51.1104], [-91.521, 51.11], [-91.5292, 51.1055], [-91.575, 51.107], [-91.5598, 51.1084], [-91.5429, 51.1152], [-91.5478, 51.1156], [-91.5433, 51.1167], [-91.5462, 51.1181], [-91.557, 51.1138], [-91.5675, 51.1159], [-91.5723, 51.1119], [-91.5718, 51.116], [-91.584, 51.1148], [-91.6029, 51.1107], [-91.6048, 51.1069], [-91.5998, 51.1073], [-91.6029, 51.1055], [-91.6136, 51.1055], [-91.6089, 51.1093], [-91.6169, 51.1131], [-91.6074, 51.1172], [-91.6264, 51.1193], [-91.6095, 51.1215], [-91.6091, 51.119], [-91.5846, 51.1189], [-91.5745, 51.1229], [-91.572, 51.1269], [-91.5721, 51.1228], [-91.5826, 51.1192], [-91.5638, 51.1201], [-91.5671, 51.1185], [-91.5603, 51.1168], [-91.553, 51.1192], [-91.5544, 51.1212], [-91.5393, 51.1236], [-91.5673, 51.1243], [-91.553, 51.1294], [-91.5585, 51.1311], [-91.552, 51.1324], [-91.5501, 51.1366], [-91.5586, 51.1384], [-91.5817, 51.1388], [-91.5836, 51.1349], [-91.5866, 51.1378], [-91.5984, 51.1385], [-91.594, 51.1329], [-91.6014, 51.1329], [-91.6024, 51.1305], [-91.62, 51.1363], [-91.6101, 51.1368], [-91.6112, 51.1407], [-91.6027, 51.1432], [-91.5904, 51.1404], [-91.5905, 51.1443], [-91.6024, 51.151], [-91.6101, 51.1531], [-91.6157, 51.1499], [-91.62, 51.1524], [-91.5964, 51.1591], [-91.6053, 51.1587], [-91.6003, 51.1608], [-91.608, 51.1617], [-91.6053, 51.1635], [-91.6068, 51.1662], [-91.6113, 51.1674], [-91.598, 51.1678], [-91.5921, 51.1734], [-91.5984, 51.1744], [-91.6014, 51.1799], [-91.607, 51.1754], [-91.6053, 51.1834], [-91.6096, 51.181], [-91.6068, 51.1855], [-91.6137, 51.1891], [-91.6264, 51.1867], [-91.6254, 51.1806], [-91.6327, 51.1801], [-91.6149, 51.1789], [-91.623, 51.1788], [-91.6197, 51.1764], [-91.6247, 51.1746], [-91.644, 51.1801], [-91.6397, 51.1824], [-91.6476, 51.1814], [-91.6284, 51.1865], [-91.6343, 51.1867], [-91.6284, 51.1887], [-91.6334, 51.1924], [-91.6297, 51.1934], [-91.6387, 51.1949], [-91.6394, 51.1983], [-91.6326, 51.1984], [-91.634, 51.2033], [-91.6409, 51.2028], [-91.6406, 51.1987], [-91.6812, 51.2032], [-91.6871, 51.1977], [-91.6826, 51.2035], [-91.6857, 51.2047], [-91.684, 51.2066], [-91.6789, 51.2042], [-91.6676, 51.2093], [-91.6673, 51.2198], [-91.6761, 51.2174], [-91.6731, 51.2205], [-91.6778, 51.2221], [-91.6714, 51.2268], [-91.6429, 51.2342], [-91.6386, 51.2391], [-91.6168, 51.2407], [-91.6158, 51.2427], [-91.6222, 51.2426], [-91.6191, 51.245], [-91.6261, 51.2435], [-91.6111, 51.2509], [-91.6224, 51.252], [-91.6226, 51.2551], [-91.6155, 51.2576], [-91.6156, 51.2602], [-91.6004, 51.2613], [-91.6074, 51.2638], [-91.6025, 51.2655], [-91.6087, 51.2664], [-91.6018, 51.2674], [-91.6047, 51.2686], [-91.6034, 51.2708], [-91.5856, 51.27], [-91.5838, 51.2658], [-91.5978, 51.2622], [-91.5906, 51.2618]], [[-91.4044, 51.0661], [-91.4018, 51.0664], [-91.4042, 51.0665], [-91.4044, 51.0661]]]]}}]}